<?xml version='1.0' encoding='UTF-8'?>
<gpx version="1.1" creator="https://www.komoot.de" xmlns="http://www.topografix.com/GPX/1/1" xmlns:xsi="http://www.w3.org/2001/XMLSchema-instance" xsi:schemaLocation="http://www.topografix.com/GPX/1/1 http://www.topografix.com/GPX/1/1/gpx.xsd">
  <metadata>
    <name>ASOMADERO CORTA_Track</name>
    <author>
      <link href="https://www.komoot.de">
        <text>komoot</text>
        <type>text/html</type>
      </link>
    </author>
  </metadata>
  <trk>
    <name>ASOMADERO CORTA_Track</name>
    <trkseg>
      <trkpt lat="28.380741" lon="-16.584920">
        <ele>347.210496</ele>
        <time>2025-12-29T19:58:47.285Z</time>
      </trkpt>
      <trkpt lat="28.380888" lon="-16.584927">
        <ele>347.210496</ele>
        <time>2025-12-29T19:58:52.694Z</time>
      </trkpt>
      <trkpt lat="28.381122" lon="-16.584915">
        <ele>347.210496</ele>
        <time>2025-12-29T19:59:01.633Z</time>
      </trkpt>
      <trkpt lat="28.381038" lon="-16.585080">
        <ele>347.210496</ele>
        <time>2025-12-29T19:59:08.345Z</time>
      </trkpt>
      <trkpt lat="28.381036" lon="-16.585158">
        <ele>347.210496</ele>
        <time>2025-12-29T19:59:11.270Z</time>
      </trkpt>
      <trkpt lat="28.381110" lon="-16.585400">
        <ele>347.210496</ele>
        <time>2025-12-29T19:59:20.809Z</time>
      </trkpt>
      <trkpt lat="28.381073" lon="-16.585576">
        <ele>348.011428</ele>
        <time>2025-12-29T19:59:27.944Z</time>
      </trkpt>
      <trkpt lat="28.381011" lon="-16.585652">
        <ele>348.720294</ele>
        <time>2025-12-29T19:59:32.191Z</time>
      </trkpt>
      <trkpt lat="28.380950" lon="-16.585685">
        <ele>349.245469</ele>
        <time>2025-12-29T19:59:35.210Z</time>
      </trkpt>
      <trkpt lat="28.380777" lon="-16.585667">
        <ele>350.595960</ele>
        <time>2025-12-29T19:59:43.717Z</time>
      </trkpt>
      <trkpt lat="28.380717" lon="-16.585612">
        <ele>351.195175</ele>
        <time>2025-12-29T19:59:47.841Z</time>
      </trkpt>
      <trkpt lat="28.380516" lon="-16.585367">
        <ele>353.486328</ele>
        <time>2025-12-29T20:00:04.482Z</time>
      </trkpt>
      <trkpt lat="28.380421" lon="-16.585310">
        <ele>354.321422</ele>
        <time>2025-12-29T20:00:10.845Z</time>
      </trkpt>
      <trkpt lat="28.380289" lon="-16.585263">
        <ele>355.396737</ele>
        <time>2025-12-29T20:00:19.533Z</time>
      </trkpt>
      <trkpt lat="28.379996" lon="-16.585242">
        <ele>357.678985</ele>
        <time>2025-12-29T20:00:40.201Z</time>
      </trkpt>
      <trkpt lat="28.379913" lon="-16.585255">
        <ele>358.330309</ele>
        <time>2025-12-29T20:00:46.552Z</time>
      </trkpt>
      <trkpt lat="28.379547" lon="-16.585313">
        <ele>361.206470</ele>
        <time>2025-12-29T20:01:13.629Z</time>
      </trkpt>
      <trkpt lat="28.379390" lon="-16.585313">
        <ele>362.835259</ele>
        <time>2025-12-29T20:01:24.719Z</time>
      </trkpt>
      <trkpt lat="28.378487" lon="-16.585234">
        <ele>372.231102</ele>
        <time>2025-12-29T20:02:25.373Z</time>
      </trkpt>
      <trkpt lat="28.378163" lon="-16.585246">
        <ele>375.594209</ele>
        <time>2025-12-29T20:02:46.560Z</time>
      </trkpt>
      <trkpt lat="28.378065" lon="-16.585260">
        <ele>376.618905</ele>
        <time>2025-12-29T20:02:52.887Z</time>
      </trkpt>
      <trkpt lat="28.377864" lon="-16.585288">
        <ele>378.719774</ele>
        <time>2025-12-29T20:03:05.862Z</time>
      </trkpt>
      <trkpt lat="28.377465" lon="-16.585419">
        <ele>382.376809</ele>
        <time>2025-12-29T20:03:32.150Z</time>
      </trkpt>
      <trkpt lat="28.377246" lon="-16.585555">
        <ele>384.434593</ele>
        <time>2025-12-29T20:03:48.398Z</time>
      </trkpt>
      <trkpt lat="28.376674" lon="-16.585800">
        <ele>389.474954</ele>
        <time>2025-12-29T20:04:23.495Z</time>
      </trkpt>
      <trkpt lat="28.376437" lon="-16.586001">
        <ele>391.913297</ele>
        <time>2025-12-29T20:04:39.373Z</time>
      </trkpt>
      <trkpt lat="28.376306" lon="-16.586166">
        <ele>393.525681</ele>
        <time>2025-12-29T20:04:50.310Z</time>
      </trkpt>
      <trkpt lat="28.376052" lon="-16.586562">
        <ele>397.878076</ele>
        <time>2025-12-29T20:05:15.322Z</time>
      </trkpt>
      <trkpt lat="28.375933" lon="-16.586672">
        <ele>399.563411</ele>
        <time>2025-12-29T20:05:24.733Z</time>
      </trkpt>
      <trkpt lat="28.375845" lon="-16.586702">
        <ele>400.572858</ele>
        <time>2025-12-29T20:05:30.454Z</time>
      </trkpt>
      <trkpt lat="28.375535" lon="-16.586668">
        <ele>403.994765</ele>
        <time>2025-12-29T20:05:50.139Z</time>
      </trkpt>
      <trkpt lat="28.374952" lon="-16.586522">
        <ele>410.554056</ele>
        <time>2025-12-29T20:06:32.093Z</time>
      </trkpt>
      <trkpt lat="28.374681" lon="-16.586505">
        <ele>413.536165</ele>
        <time>2025-12-29T20:06:54.187Z</time>
      </trkpt>
      <trkpt lat="28.374365" lon="-16.586399">
        <ele>418.333025</ele>
        <time>2025-12-29T20:07:21.368Z</time>
      </trkpt>
      <trkpt lat="28.374189" lon="-16.586389">
        <ele>421.109978</ele>
        <time>2025-12-29T20:07:35.653Z</time>
      </trkpt>
      <trkpt lat="28.373510" lon="-16.586480">
        <ele>431.884110</ele>
        <time>2025-12-29T20:08:34.210Z</time>
      </trkpt>
      <trkpt lat="28.373378" lon="-16.586474">
        <ele>433.965890</ele>
        <time>2025-12-29T20:08:45.772Z</time>
      </trkpt>
      <trkpt lat="28.373315" lon="-16.586506">
        <ele>435.053309</ele>
        <time>2025-12-29T20:08:51.758Z</time>
      </trkpt>
      <trkpt lat="28.373311" lon="-16.586534">
        <ele>435.446624</ele>
        <time>2025-12-29T20:08:53.805Z</time>
      </trkpt>
      <trkpt lat="28.372774" lon="-16.586583">
        <ele>443.576387</ele>
        <time>2025-12-29T20:09:39.385Z</time>
      </trkpt>
      <trkpt lat="28.372633" lon="-16.586551">
        <ele>445.130945</ele>
        <time>2025-12-29T20:09:50.594Z</time>
      </trkpt>
      <trkpt lat="28.372421" lon="-16.586564">
        <ele>447.426377</ele>
        <time>2025-12-29T20:10:06.405Z</time>
      </trkpt>
      <trkpt lat="28.372204" lon="-16.586606">
        <ele>449.806312</ele>
        <time>2025-12-29T20:10:22.314Z</time>
      </trkpt>
      <trkpt lat="28.371896" lon="-16.586730">
        <ele>453.339102</ele>
        <time>2025-12-29T20:10:45.069Z</time>
      </trkpt>
      <trkpt lat="28.371605" lon="-16.586727">
        <ele>456.485460</ele>
        <time>2025-12-29T20:11:03.179Z</time>
      </trkpt>
      <trkpt lat="28.371507" lon="-16.586754">
        <ele>457.575704</ele>
        <time>2025-12-29T20:11:09.000Z</time>
      </trkpt>
      <trkpt lat="28.371237" lon="-16.586949">
        <ele>461.034443</ele>
        <time>2025-12-29T20:11:26.675Z</time>
      </trkpt>
      <trkpt lat="28.371174" lon="-16.587022">
        <ele>462.007186</ele>
        <time>2025-12-29T20:11:31.515Z</time>
      </trkpt>
      <trkpt lat="28.371158" lon="-16.587124">
        <ele>462.978466</ele>
        <time>2025-12-29T20:11:36.465Z</time>
      </trkpt>
      <trkpt lat="28.371114" lon="-16.587196">
        <ele>463.796572</ele>
        <time>2025-12-29T20:11:40.682Z</time>
      </trkpt>
      <trkpt lat="28.370997" lon="-16.587269">
        <ele>465.212235</ele>
        <time>2025-12-29T20:11:48.240Z</time>
      </trkpt>
      <trkpt lat="28.370890" lon="-16.587299">
        <ele>466.381151</ele>
        <time>2025-12-29T20:11:54.604Z</time>
      </trkpt>
      <trkpt lat="28.370734" lon="-16.587437">
        <ele>468.477906</ele>
        <time>2025-12-29T20:12:06.903Z</time>
      </trkpt>
      <trkpt lat="28.370663" lon="-16.587542">
        <ele>469.713759</ele>
        <time>2025-12-29T20:12:14.506Z</time>
      </trkpt>
      <trkpt lat="28.370510" lon="-16.587582">
        <ele>471.378930</ele>
        <time>2025-12-29T20:12:25.350Z</time>
      </trkpt>
      <trkpt lat="28.370389" lon="-16.587675">
        <ele>472.928242</ele>
        <time>2025-12-29T20:12:35.778Z</time>
      </trkpt>
      <trkpt lat="28.369940" lon="-16.587845">
        <ele>477.947863</ele>
        <time>2025-12-29T20:13:12.911Z</time>
      </trkpt>
      <trkpt lat="28.369832" lon="-16.587913">
        <ele>479.257407</ele>
        <time>2025-12-29T20:13:22.040Z</time>
      </trkpt>
      <trkpt lat="28.369738" lon="-16.588078">
        <ele>481.091870</ele>
        <time>2025-12-29T20:13:34.119Z</time>
      </trkpt>
      <trkpt lat="28.369594" lon="-16.588231">
        <ele>483.925611</ele>
        <time>2025-12-29T20:13:46.507Z</time>
      </trkpt>
      <trkpt lat="28.369452" lon="-16.588324">
        <ele>486.354915</ele>
        <time>2025-12-29T20:13:57.201Z</time>
      </trkpt>
      <trkpt lat="28.369412" lon="-16.588350">
        <ele>487.037945</ele>
        <time>2025-12-29T20:14:00.352Z</time>
      </trkpt>
      <trkpt lat="28.369219" lon="-16.588423">
        <ele>490.052997</ele>
        <time>2025-12-29T20:14:14.896Z</time>
      </trkpt>
      <trkpt lat="28.369351" lon="-16.588469">
        <ele>492.099507</ele>
        <time>2025-12-29T20:14:29.142Z</time>
      </trkpt>
      <trkpt lat="28.369582" lon="-16.588443">
        <ele>495.540294</ele>
        <time>2025-12-29T20:14:53.927Z</time>
      </trkpt>
      <trkpt lat="28.369729" lon="-16.588373">
        <ele>497.902765</ele>
        <time>2025-12-29T20:15:11.568Z</time>
      </trkpt>
      <trkpt lat="28.369811" lon="-16.588367">
        <ele>499.120741</ele>
        <time>2025-12-29T20:15:20.762Z</time>
      </trkpt>
      <trkpt lat="28.369968" lon="-16.588425">
        <ele>501.567760</ele>
        <time>2025-12-29T20:15:39.748Z</time>
      </trkpt>
      <trkpt lat="28.369945" lon="-16.588893">
        <ele>507.681134</ele>
        <time>2025-12-29T20:16:28.682Z</time>
      </trkpt>
      <trkpt lat="28.369916" lon="-16.588999">
        <ele>510.293261</ele>
        <time>2025-12-29T20:16:41.061Z</time>
      </trkpt>
      <trkpt lat="28.369856" lon="-16.589074">
        <ele>512.948761</ele>
        <time>2025-12-29T20:16:52.814Z</time>
      </trkpt>
      <trkpt lat="28.369755" lon="-16.589123">
        <ele>516.218390</ele>
        <time>2025-12-29T20:17:09.527Z</time>
      </trkpt>
      <trkpt lat="28.369685" lon="-16.589224">
        <ele>519.586568</ele>
        <time>2025-12-29T20:17:27.742Z</time>
      </trkpt>
      <trkpt lat="28.369540" lon="-16.589347">
        <ele>524.973658</ele>
        <time>2025-12-29T20:18:00.280Z</time>
      </trkpt>
      <trkpt lat="28.369431" lon="-16.589360">
        <ele>528.236764</ele>
        <time>2025-12-29T20:18:21.516Z</time>
      </trkpt>
      <trkpt lat="28.369373" lon="-16.589432">
        <ele>530.794078</ele>
        <time>2025-12-29T20:18:38.948Z</time>
      </trkpt>
      <trkpt lat="28.369303" lon="-16.589395">
        <ele>533.092589</ele>
        <time>2025-12-29T20:18:54.798Z</time>
      </trkpt>
      <trkpt lat="28.369304" lon="-16.589454">
        <ele>534.638534</ele>
        <time>2025-12-29T20:19:05.331Z</time>
      </trkpt>
      <trkpt lat="28.369157" lon="-16.589419">
        <ele>539.110219</ele>
        <time>2025-12-29T20:19:36.746Z</time>
      </trkpt>
      <trkpt lat="28.369164" lon="-16.589522">
        <ele>541.816612</ele>
        <time>2025-12-29T20:19:56.371Z</time>
      </trkpt>
      <trkpt lat="28.369116" lon="-16.589504">
        <ele>543.321517</ele>
        <time>2025-12-29T20:20:07.440Z</time>
      </trkpt>
      <trkpt lat="28.369096" lon="-16.589599">
        <ele>545.880537</ele>
        <time>2025-12-29T20:20:26.193Z</time>
      </trkpt>
      <trkpt lat="28.369046" lon="-16.589555">
        <ele>547.763308</ele>
        <time>2025-12-29T20:20:40.262Z</time>
      </trkpt>
      <trkpt lat="28.368986" lon="-16.589564">
        <ele>549.565197</ele>
        <time>2025-12-29T20:20:53.688Z</time>
      </trkpt>
      <trkpt lat="28.368977" lon="-16.589613">
        <ele>550.876552</ele>
        <time>2025-12-29T20:21:03.586Z</time>
      </trkpt>
      <trkpt lat="28.368904" lon="-16.589618">
        <ele>553.053943</ele>
        <time>2025-12-29T20:21:20.034Z</time>
      </trkpt>
      <trkpt lat="28.368902" lon="-16.589658">
        <ele>554.103541</ele>
        <time>2025-12-29T20:21:28.000Z</time>
      </trkpt>
      <trkpt lat="28.368737" lon="-16.589744">
        <ele>559.508127</ele>
        <time>2025-12-29T20:22:09.950Z</time>
      </trkpt>
      <trkpt lat="28.368534" lon="-16.590068">
        <ele>574.241428</ele>
        <time>2025-12-29T20:23:35.982Z</time>
      </trkpt>
      <trkpt lat="28.368569" lon="-16.590123">
        <ele>576.932488</ele>
        <time>2025-12-29T20:23:51.568Z</time>
      </trkpt>
      <trkpt lat="28.368553" lon="-16.590154">
        <ele>578.357363</ele>
        <time>2025-12-29T20:23:59.985Z</time>
      </trkpt>
      <trkpt lat="28.368483" lon="-16.590177">
        <ele>581.640559</ele>
        <time>2025-12-29T20:24:19.739Z</time>
      </trkpt>
      <trkpt lat="28.368507" lon="-16.590341">
        <ele>588.231901</ele>
        <time>2025-12-29T20:25:00.839Z</time>
      </trkpt>
      <trkpt lat="28.368412" lon="-16.590438">
        <ele>593.986193</ele>
        <time>2025-12-29T20:25:38.688Z</time>
      </trkpt>
      <trkpt lat="28.368310" lon="-16.590467">
        <ele>598.723691</ele>
        <time>2025-12-29T20:26:11.198Z</time>
      </trkpt>
      <trkpt lat="28.368263" lon="-16.590516">
        <ele>601.597483</ele>
        <time>2025-12-29T20:26:31.590Z</time>
      </trkpt>
      <trkpt lat="28.368282" lon="-16.590605">
        <ele>605.228399</ele>
        <time>2025-12-29T20:26:57.608Z</time>
      </trkpt>
      <trkpt lat="28.368253" lon="-16.590682">
        <ele>608.549077</ele>
        <time>2025-12-29T20:27:22.056Z</time>
      </trkpt>
      <trkpt lat="28.368166" lon="-16.590710">
        <ele>612.623233</ele>
        <time>2025-12-29T20:27:52.398Z</time>
      </trkpt>
      <trkpt lat="28.367760" lon="-16.591164">
        <ele>638.287069</ele>
        <time>2025-12-29T20:31:11.367Z</time>
      </trkpt>
      <trkpt lat="28.367670" lon="-16.591370">
        <ele>647.494483</ele>
        <time>2025-12-29T20:32:22.336Z</time>
      </trkpt>
      <trkpt lat="28.367630" lon="-16.591521">
        <ele>653.861394</ele>
        <time>2025-12-29T20:33:10.943Z</time>
      </trkpt>
      <trkpt lat="28.367451" lon="-16.591814">
        <ele>668.263012</ele>
        <time>2025-12-29T20:34:57.719Z</time>
      </trkpt>
      <trkpt lat="28.367457" lon="-16.591864">
        <ele>670.300453</ele>
        <time>2025-12-29T20:35:12.126Z</time>
      </trkpt>
      <trkpt lat="28.367397" lon="-16.591960">
        <ele>675.054716</ele>
        <time>2025-12-29T20:35:44.543Z</time>
      </trkpt>
      <trkpt lat="28.367317" lon="-16.592062">
        <ele>680.571497</ele>
        <time>2025-12-29T20:36:21.496Z</time>
      </trkpt>
      <trkpt lat="28.366988" lon="-16.592280">
        <ele>698.046223</ele>
        <time>2025-12-29T20:38:11.590Z</time>
      </trkpt>
      <trkpt lat="28.366962" lon="-16.592325">
        <ele>700.219781</ele>
        <time>2025-12-29T20:38:24.889Z</time>
      </trkpt>
      <trkpt lat="28.367056" lon="-16.592387">
        <ele>705.206761</ele>
        <time>2025-12-29T20:38:55.254Z</time>
      </trkpt>
      <trkpt lat="28.367501" lon="-16.592405">
        <ele>725.721352</ele>
        <time>2025-12-29T20:40:59.046Z</time>
      </trkpt>
      <trkpt lat="28.367611" lon="-16.592357">
        <ele>731.958207</ele>
        <time>2025-12-29T20:41:33.804Z</time>
      </trkpt>
      <trkpt lat="28.367679" lon="-16.592375">
        <ele>735.653859</ele>
        <time>2025-12-29T20:41:54.609Z</time>
      </trkpt>
      <trkpt lat="28.367874" lon="-16.592196">
        <ele>748.921796</ele>
        <time>2025-12-29T20:43:14.724Z</time>
      </trkpt>
      <trkpt lat="28.367897" lon="-16.592203">
        <ele>750.182107</ele>
        <time>2025-12-29T20:43:22.618Z</time>
      </trkpt>
      <trkpt lat="28.367989" lon="-16.592605">
        <ele>769.528069</ele>
        <time>2025-12-29T20:45:29.692Z</time>
      </trkpt>
      <trkpt lat="28.368144" lon="-16.592845">
        <ele>783.393737</ele>
        <time>2025-12-29T20:47:02.143Z</time>
      </trkpt>
      <trkpt lat="28.368265" lon="-16.593317">
        <ele>806.290944</ele>
        <time>2025-12-29T20:49:37.503Z</time>
      </trkpt>
      <trkpt lat="28.368260" lon="-16.593360">
        <ele>808.311063</ele>
        <time>2025-12-29T20:49:51.234Z</time>
      </trkpt>
      <trkpt lat="28.368208" lon="-16.593429">
        <ele>812.542295</ele>
        <time>2025-12-29T20:50:20.408Z</time>
      </trkpt>
      <trkpt lat="28.368148" lon="-16.593464">
        <ele>816.112078</ele>
        <time>2025-12-29T20:50:44.605Z</time>
      </trkpt>
      <trkpt lat="28.368146" lon="-16.593518">
        <ele>818.629338</ele>
        <time>2025-12-29T20:51:01.989Z</time>
      </trkpt>
      <trkpt lat="28.368203" lon="-16.593612">
        <ele>823.878313</ele>
        <time>2025-12-29T20:51:38.690Z</time>
      </trkpt>
      <trkpt lat="28.368278" lon="-16.593646">
        <ele>828.072596</ele>
        <time>2025-12-29T20:52:08.067Z</time>
      </trkpt>
      <trkpt lat="28.368370" lon="-16.593736">
        <ele>834.378009</ele>
        <time>2025-12-29T20:52:52.276Z</time>
      </trkpt>
      <trkpt lat="28.368287" lon="-16.593886">
        <ele>842.476813</ele>
        <time>2025-12-29T20:53:48.934Z</time>
      </trkpt>
      <trkpt lat="28.368320" lon="-16.593943">
        <ele>845.595391</ele>
        <time>2025-12-29T20:54:10.785Z</time>
      </trkpt>
      <trkpt lat="28.368417" lon="-16.593988">
        <ele>851.037556</ele>
        <time>2025-12-29T20:54:48.927Z</time>
      </trkpt>
      <trkpt lat="28.368429" lon="-16.594020">
        <ele>852.627427</ele>
        <time>2025-12-29T20:55:00.040Z</time>
      </trkpt>
      <trkpt lat="28.368340" lon="-16.594179">
        <ele>861.240478</ele>
        <time>2025-12-29T20:55:59.520Z</time>
      </trkpt>
      <trkpt lat="28.368340" lon="-16.594308">
        <ele>867.136533</ele>
        <time>2025-12-29T20:56:39.747Z</time>
      </trkpt>
      <trkpt lat="28.368232" lon="-16.594471">
        <ele>876.462548</ele>
        <time>2025-12-29T20:57:42.750Z</time>
      </trkpt>
      <trkpt lat="28.368152" lon="-16.594521">
        <ele>881.204988</ele>
        <time>2025-12-29T20:58:13.886Z</time>
      </trkpt>
      <trkpt lat="28.368105" lon="-16.594511">
        <ele>883.688758</ele>
        <time>2025-12-29T20:58:29.718Z</time>
      </trkpt>
      <trkpt lat="28.368025" lon="-16.594552">
        <ele>888.247247</ele>
        <time>2025-12-29T20:58:57.724Z</time>
      </trkpt>
      <trkpt lat="28.367947" lon="-16.594652">
        <ele>894.355104</ele>
        <time>2025-12-29T20:59:34.351Z</time>
      </trkpt>
      <trkpt lat="28.367985" lon="-16.594803">
        <ele>901.533427</ele>
        <time>2025-12-29T21:00:13.947Z</time>
      </trkpt>
      <trkpt lat="28.367875" lon="-16.594868">
        <ele>907.973443</ele>
        <time>2025-12-29T21:00:47.081Z</time>
      </trkpt>
      <trkpt lat="28.367803" lon="-16.595006">
        <ele>914.865353</ele>
        <time>2025-12-29T21:01:22.066Z</time>
      </trkpt>
      <trkpt lat="28.367664" lon="-16.595035">
        <ele>920.150909</ele>
        <time>2025-12-29T21:01:55.607Z</time>
      </trkpt>
      <trkpt lat="28.367440" lon="-16.594995">
        <ele>928.631427</ele>
        <time>2025-12-29T21:02:46.601Z</time>
      </trkpt>
      <trkpt lat="28.367257" lon="-16.594853">
        <ele>936.918937</ele>
        <time>2025-12-29T21:03:35.951Z</time>
      </trkpt>
      <trkpt lat="28.367156" lon="-16.594687">
        <ele>943.560727</ele>
        <time>2025-12-29T21:04:15.109Z</time>
      </trkpt>
      <trkpt lat="28.367058" lon="-16.594638">
        <ele>947.565035</ele>
        <time>2025-12-29T21:04:37.837Z</time>
      </trkpt>
      <trkpt lat="28.366976" lon="-16.594715">
        <ele>951.543340</ele>
        <time>2025-12-29T21:05:00.618Z</time>
      </trkpt>
      <trkpt lat="28.366938" lon="-16.594844">
        <ele>956.020257</ele>
        <time>2025-12-29T21:05:26.480Z</time>
      </trkpt>
      <trkpt lat="28.367103" lon="-16.595059">
        <ele>965.408867</ele>
        <time>2025-12-29T21:06:23.671Z</time>
      </trkpt>
      <trkpt lat="28.367090" lon="-16.595121">
        <ele>967.506390</ele>
        <time>2025-12-29T21:06:37.259Z</time>
      </trkpt>
      <trkpt lat="28.367000" lon="-16.595154">
        <ele>971.043301</ele>
        <time>2025-12-29T21:07:01.134Z</time>
      </trkpt>
      <trkpt lat="28.367091" lon="-16.595253">
        <ele>975.754815</ele>
        <time>2025-12-29T21:07:34.952Z</time>
      </trkpt>
      <trkpt lat="28.367087" lon="-16.595349">
        <ele>978.917675</ele>
        <time>2025-12-29T21:07:58.894Z</time>
      </trkpt>
      <trkpt lat="28.367194" lon="-16.595636">
        <ele>989.095623</ele>
        <time>2025-12-29T21:09:23.759Z</time>
      </trkpt>
      <trkpt lat="28.367106" lon="-16.595862">
        <ele>997.149347</ele>
        <time>2025-12-29T21:10:36.241Z</time>
      </trkpt>
      <trkpt lat="28.366662" lon="-16.596478">
        <ele>1023.098526</ele>
        <time>2025-12-29T21:13:55.766Z</time>
      </trkpt>
      <trkpt lat="28.366533" lon="-16.596588">
        <ele>1029.071336</ele>
        <time>2025-12-29T21:14:33.233Z</time>
      </trkpt>
      <trkpt lat="28.366507" lon="-16.596802">
        <ele>1036.111331</ele>
        <time>2025-12-29T21:15:13.342Z</time>
      </trkpt>
      <trkpt lat="28.366285" lon="-16.596744">
        <ele>1044.547544</ele>
        <time>2025-12-29T21:15:47.835Z</time>
      </trkpt>
      <trkpt lat="28.366195" lon="-16.596769">
        <ele>1047.770858</ele>
        <time>2025-12-29T21:16:01.259Z</time>
      </trkpt>
      <trkpt lat="28.366120" lon="-16.596799">
        <ele>1049.035910</ele>
        <time>2025-12-29T21:16:10.195Z</time>
      </trkpt>
      <trkpt lat="28.365933" lon="-16.597048">
        <ele>1053.619013</ele>
        <time>2025-12-29T21:16:39.957Z</time>
      </trkpt>
      <trkpt lat="28.365914" lon="-16.597144">
        <ele>1054.996612</ele>
        <time>2025-12-29T21:16:48.219Z</time>
      </trkpt>
      <trkpt lat="28.365843" lon="-16.597153">
        <ele>1056.133269</ele>
        <time>2025-12-29T21:16:54.014Z</time>
      </trkpt>
      <trkpt lat="28.365360" lon="-16.597423">
        <ele>1064.697455</ele>
        <time>2025-12-29T21:17:36.575Z</time>
      </trkpt>
      <trkpt lat="28.365167" lon="-16.597498">
        <ele>1067.942760</ele>
        <time>2025-12-29T21:17:53.575Z</time>
      </trkpt>
      <trkpt lat="28.364993" lon="-16.597520">
        <ele>1070.728283</ele>
        <time>2025-12-29T21:18:07.417Z</time>
      </trkpt>
      <trkpt lat="28.364816" lon="-16.597593">
        <ele>1073.724175</ele>
        <time>2025-12-29T21:18:20.816Z</time>
      </trkpt>
      <trkpt lat="28.364598" lon="-16.597724">
        <ele>1076.233160</ele>
        <time>2025-12-29T21:18:36.141Z</time>
      </trkpt>
      <trkpt lat="28.364532" lon="-16.597644">
        <ele>1076.234747</ele>
        <time>2025-12-29T21:18:41.959Z</time>
      </trkpt>
      <trkpt lat="28.364467" lon="-16.597630">
        <ele>1076.235836</ele>
        <time>2025-12-29T21:18:45.987Z</time>
      </trkpt>
      <trkpt lat="28.364207" lon="-16.597695">
        <ele>1076.240216</ele>
        <time>2025-12-29T21:18:59.664Z</time>
      </trkpt>
      <trkpt lat="28.364001" lon="-16.597708">
        <ele>1076.243611</ele>
        <time>2025-12-29T21:19:09.089Z</time>
      </trkpt>
      <trkpt lat="28.363537" lon="-16.597608">
        <ele>1076.251381</ele>
        <time>2025-12-29T21:19:29.083Z</time>
      </trkpt>
      <trkpt lat="28.363363" lon="-16.597444">
        <ele>1076.255101</ele>
        <time>2025-12-29T21:19:38.522Z</time>
      </trkpt>
      <trkpt lat="28.363212" lon="-16.597261">
        <ele>1076.258733</ele>
        <time>2025-12-29T21:19:48.050Z</time>
      </trkpt>
      <trkpt lat="28.363155" lon="-16.597134">
        <ele>1076.260797</ele>
        <time>2025-12-29T21:19:53.650Z</time>
      </trkpt>
      <trkpt lat="28.363023" lon="-16.597046">
        <ele>1077.561366</ele>
        <time>2025-12-29T21:20:00.797Z</time>
      </trkpt>
      <trkpt lat="28.362476" lon="-16.597423">
        <ele>1084.316994</ele>
        <time>2025-12-29T21:20:41.237Z</time>
      </trkpt>
      <trkpt lat="28.362321" lon="-16.597461">
        <ele>1085.991451</ele>
        <time>2025-12-29T21:20:55.801Z</time>
      </trkpt>
      <trkpt lat="28.362199" lon="-16.597632">
        <ele>1088.037105</ele>
        <time>2025-12-29T21:21:14.701Z</time>
      </trkpt>
      <trkpt lat="28.361894" lon="-16.597850">
        <ele>1091.842001</ele>
        <time>2025-12-29T21:21:51.537Z</time>
      </trkpt>
      <trkpt lat="28.361759" lon="-16.597842">
        <ele>1093.269539</ele>
        <time>2025-12-29T21:22:05.916Z</time>
      </trkpt>
      <trkpt lat="28.361667" lon="-16.597723">
        <ele>1094.741494</ele>
        <time>2025-12-29T21:22:21.060Z</time>
      </trkpt>
      <trkpt lat="28.361574" lon="-16.597650">
        <ele>1096.084198</ele>
        <time>2025-12-29T21:22:33.447Z</time>
      </trkpt>
      <trkpt lat="28.361424" lon="-16.597582">
        <ele>1098.163514</ele>
        <time>2025-12-29T21:22:50.789Z</time>
      </trkpt>
      <trkpt lat="28.361337" lon="-16.597566">
        <ele>1099.298251</ele>
        <time>2025-12-29T21:22:59.479Z</time>
      </trkpt>
      <trkpt lat="28.361244" lon="-16.597646">
        <ele>1100.800038</ele>
        <time>2025-12-29T21:23:10.633Z</time>
      </trkpt>
      <trkpt lat="28.361117" lon="-16.597555">
        <ele>1102.733129</ele>
        <time>2025-12-29T21:23:25.071Z</time>
      </trkpt>
      <trkpt lat="28.360987" lon="-16.597454">
        <ele>1104.760720</ele>
        <time>2025-12-29T21:23:40.241Z</time>
      </trkpt>
      <trkpt lat="28.360933" lon="-16.597285">
        <ele>1106.797819</ele>
        <time>2025-12-29T21:23:55.283Z</time>
      </trkpt>
      <trkpt lat="28.360920" lon="-16.597163">
        <ele>1108.190180</ele>
        <time>2025-12-29T21:24:05.278Z</time>
      </trkpt>
      <trkpt lat="28.360862" lon="-16.597102">
        <ele>1109.207695</ele>
        <time>2025-12-29T21:24:12.057Z</time>
      </trkpt>
      <trkpt lat="28.360786" lon="-16.597093">
        <ele>1110.191527</ele>
        <time>2025-12-29T21:24:18.646Z</time>
      </trkpt>
      <trkpt lat="28.360585" lon="-16.597325">
        <ele>1113.880288</ele>
        <time>2025-12-29T21:24:41.473Z</time>
      </trkpt>
      <trkpt lat="28.360511" lon="-16.597281">
        <ele>1114.955611</ele>
        <time>2025-12-29T21:24:47.898Z</time>
      </trkpt>
      <trkpt lat="28.360377" lon="-16.597153">
        <ele>1117.209479</ele>
        <time>2025-12-29T21:25:01.701Z</time>
      </trkpt>
      <trkpt lat="28.360179" lon="-16.597037">
        <ele>1118.128656</ele>
        <time>2025-12-29T21:25:17.560Z</time>
      </trkpt>
      <trkpt lat="28.359996" lon="-16.596879">
        <ele>1117.622573</ele>
        <time>2025-12-29T21:25:30.541Z</time>
      </trkpt>
      <trkpt lat="28.359848" lon="-16.596811">
        <ele>1117.271044</ele>
        <time>2025-12-29T21:25:38.230Z</time>
      </trkpt>
      <trkpt lat="28.359768" lon="-16.596729">
        <ele>1117.033809</ele>
        <time>2025-12-29T21:25:43.181Z</time>
      </trkpt>
      <trkpt lat="28.359734" lon="-16.596613">
        <ele>1116.796890</ele>
        <time>2025-12-29T21:25:47.972Z</time>
      </trkpt>
      <trkpt lat="28.359780" lon="-16.596298">
        <ele>1116.178154</ele>
        <time>2025-12-29T21:25:59.729Z</time>
      </trkpt>
      <trkpt lat="28.359770" lon="-16.596121">
        <ele>1115.834468</ele>
        <time>2025-12-29T21:26:05.827Z</time>
      </trkpt>
      <trkpt lat="28.359807" lon="-16.595790">
        <ele>1115.187921</ele>
        <time>2025-12-29T21:26:16.998Z</time>
      </trkpt>
      <trkpt lat="28.359730" lon="-16.595695">
        <ele>1114.937648</ele>
        <time>2025-12-29T21:26:21.382Z</time>
      </trkpt>
      <trkpt lat="28.359676" lon="-16.595559">
        <ele>1114.648531</ele>
        <time>2025-12-29T21:26:26.671Z</time>
      </trkpt>
      <trkpt lat="28.359706" lon="-16.595337">
        <ele>1115.522854</ele>
        <time>2025-12-29T21:26:35.230Z</time>
      </trkpt>
      <trkpt lat="28.359771" lon="-16.595228">
        <ele>1116.663715</ele>
        <time>2025-12-29T21:26:40.634Z</time>
      </trkpt>
      <trkpt lat="28.359848" lon="-16.595160">
        <ele>1117.623898</ele>
        <time>2025-12-29T21:26:45.615Z</time>
      </trkpt>
      <trkpt lat="28.359841" lon="-16.595099">
        <ele>1118.156908</ele>
        <time>2025-12-29T21:26:48.445Z</time>
      </trkpt>
      <trkpt lat="28.359774" lon="-16.595053">
        <ele>1118.927661</ele>
        <time>2025-12-29T21:26:52.959Z</time>
      </trkpt>
      <trkpt lat="28.359510" lon="-16.595040">
        <ele>1121.529510</ele>
        <time>2025-12-29T21:27:11.240Z</time>
      </trkpt>
      <trkpt lat="28.359431" lon="-16.594960">
        <ele>1122.571399</ele>
        <time>2025-12-29T21:27:20.481Z</time>
      </trkpt>
      <trkpt lat="28.359059" lon="-16.594949">
        <ele>1126.235445</ele>
        <time>2025-12-29T21:27:58.216Z</time>
      </trkpt>
      <trkpt lat="28.358925" lon="-16.595028">
        <ele>1127.721834</ele>
        <time>2025-12-29T21:28:14.603Z</time>
      </trkpt>
      <trkpt lat="28.358650" lon="-16.595079">
        <ele>1130.465374</ele>
        <time>2025-12-29T21:28:45.772Z</time>
      </trkpt>
      <trkpt lat="28.358466" lon="-16.595082">
        <ele>1132.198093</ele>
        <time>2025-12-29T21:29:06.598Z</time>
      </trkpt>
      <trkpt lat="28.358355" lon="-16.595008">
        <ele>1132.590736</ele>
        <time>2025-12-29T21:29:20.592Z</time>
      </trkpt>
      <trkpt lat="28.358332" lon="-16.594836">
        <ele>1133.057840</ele>
        <time>2025-12-29T21:29:35.692Z</time>
      </trkpt>
      <trkpt lat="28.358269" lon="-16.594772">
        <ele>1133.315664</ele>
        <time>2025-12-29T21:29:43.168Z</time>
      </trkpt>
      <trkpt lat="28.358164" lon="-16.594757">
        <ele>1133.638544</ele>
        <time>2025-12-29T21:29:52.037Z</time>
      </trkpt>
      <trkpt lat="28.358076" lon="-16.594649">
        <ele>1134.033727</ele>
        <time>2025-12-29T21:30:01.437Z</time>
      </trkpt>
      <trkpt lat="28.358052" lon="-16.594488">
        <ele>1134.472155</ele>
        <time>2025-12-29T21:30:10.298Z</time>
      </trkpt>
      <trkpt lat="28.358119" lon="-16.594397">
        <ele>1134.790718</ele>
        <time>2025-12-29T21:30:15.977Z</time>
      </trkpt>
      <trkpt lat="28.358109" lon="-16.594322">
        <ele>1134.994384</ele>
        <time>2025-12-29T21:30:19.420Z</time>
      </trkpt>
      <trkpt lat="28.358005" lon="-16.594177">
        <ele>1135.496626</ele>
        <time>2025-12-29T21:30:26.909Z</time>
      </trkpt>
      <trkpt lat="28.357820" lon="-16.594042">
        <ele>1136.167426</ele>
        <time>2025-12-29T21:30:35.721Z</time>
      </trkpt>
      <trkpt lat="28.357626" lon="-16.593795">
        <ele>1137.056327</ele>
        <time>2025-12-29T21:30:46.835Z</time>
      </trkpt>
      <trkpt lat="28.357613" lon="-16.593626">
        <ele>1137.511808</ele>
        <time>2025-12-29T21:30:53.156Z</time>
      </trkpt>
      <trkpt lat="28.357711" lon="-16.593405">
        <ele>1137.414362</ele>
        <time>2025-12-29T21:31:02.905Z</time>
      </trkpt>
      <trkpt lat="28.357628" lon="-16.593299">
        <ele>1137.243502</ele>
        <time>2025-12-29T21:31:08.464Z</time>
      </trkpt>
      <trkpt lat="28.357637" lon="-16.593124">
        <ele>1137.032407</ele>
        <time>2025-12-29T21:31:15.285Z</time>
      </trkpt>
      <trkpt lat="28.357690" lon="-16.593030">
        <ele>1136.897970</ele>
        <time>2025-12-29T21:31:19.682Z</time>
      </trkpt>
      <trkpt lat="28.357684" lon="-16.592895">
        <ele>1136.735196</ele>
        <time>2025-12-29T21:31:24.917Z</time>
      </trkpt>
      <trkpt lat="28.357642" lon="-16.592805">
        <ele>1136.612521</ele>
        <time>2025-12-29T21:31:28.872Z</time>
      </trkpt>
      <trkpt lat="28.357519" lon="-16.592844">
        <ele>1136.437777</ele>
        <time>2025-12-29T21:31:34.552Z</time>
      </trkpt>
      <trkpt lat="28.357422" lon="-16.592829">
        <ele>1136.303818</ele>
        <time>2025-12-29T21:31:38.869Z</time>
      </trkpt>
      <trkpt lat="28.357323" lon="-16.592864">
        <ele>1136.161940</ele>
        <time>2025-12-29T21:31:43.497Z</time>
      </trkpt>
      <trkpt lat="28.357218" lon="-16.592866">
        <ele>1136.018237</ele>
        <time>2025-12-29T21:31:48.180Z</time>
      </trkpt>
      <trkpt lat="28.357063" lon="-16.592767">
        <ele>1135.774925</ele>
        <time>2025-12-29T21:31:56.204Z</time>
      </trkpt>
      <trkpt lat="28.357062" lon="-16.592602">
        <ele>1135.576226</ele>
        <time>2025-12-29T21:32:03.333Z</time>
      </trkpt>
      <trkpt lat="28.357030" lon="-16.592416">
        <ele>1135.348002</ele>
        <time>2025-12-29T21:32:12.940Z</time>
      </trkpt>
      <trkpt lat="28.356938" lon="-16.592278">
        <ele>1135.372611</ele>
        <time>2025-12-29T21:32:23.944Z</time>
      </trkpt>
      <trkpt lat="28.356929" lon="-16.592079">
        <ele>1136.263390</ele>
        <time>2025-12-29T21:32:38.649Z</time>
      </trkpt>
      <trkpt lat="28.356762" lon="-16.591646">
        <ele>1138.376808</ele>
        <time>2025-12-29T21:33:06.400Z</time>
      </trkpt>
      <trkpt lat="28.356614" lon="-16.591615">
        <ele>1139.141305</ele>
        <time>2025-12-29T21:33:16.207Z</time>
      </trkpt>
      <trkpt lat="28.356480" lon="-16.591646">
        <ele>1139.835980</ele>
        <time>2025-12-29T21:33:25.072Z</time>
      </trkpt>
      <trkpt lat="28.356106" lon="-16.591623">
        <ele>1141.738658</ele>
        <time>2025-12-29T21:33:48.977Z</time>
      </trkpt>
      <trkpt lat="28.355989" lon="-16.591497">
        <ele>1142.557518</ele>
        <time>2025-12-29T21:34:00.376Z</time>
      </trkpt>
      <trkpt lat="28.355937" lon="-16.591345">
        <ele>1143.286561</ele>
        <time>2025-12-29T21:34:09.935Z</time>
      </trkpt>
      <trkpt lat="28.355933" lon="-16.591205">
        <ele>1143.912750</ele>
        <time>2025-12-29T21:34:17.165Z</time>
      </trkpt>
      <trkpt lat="28.355996" lon="-16.591057">
        <ele>1144.121364</ele>
        <time>2025-12-29T21:34:24.624Z</time>
      </trkpt>
      <trkpt lat="28.355990" lon="-16.590888">
        <ele>1143.640467</ele>
        <time>2025-12-29T21:34:31.361Z</time>
      </trkpt>
      <trkpt lat="28.355933" lon="-16.590529">
        <ele>1142.603265</ele>
        <time>2025-12-29T21:34:44.237Z</time>
      </trkpt>
      <trkpt lat="28.355781" lon="-16.590291">
        <ele>1141.767151</ele>
        <time>2025-12-29T21:34:54.691Z</time>
      </trkpt>
      <trkpt lat="28.355846" lon="-16.589972">
        <ele>1140.836162</ele>
        <time>2025-12-29T21:35:05.085Z</time>
      </trkpt>
      <trkpt lat="28.355874" lon="-16.589745">
        <ele>1140.184438</ele>
        <time>2025-12-29T21:35:12.683Z</time>
      </trkpt>
      <trkpt lat="28.355842" lon="-16.589556">
        <ele>1139.637211</ele>
        <time>2025-12-29T21:35:19.236Z</time>
      </trkpt>
      <trkpt lat="28.355733" lon="-16.589466">
        <ele>1139.201892</ele>
        <time>2025-12-29T21:35:24.522Z</time>
      </trkpt>
      <trkpt lat="28.355649" lon="-16.589445">
        <ele>1138.924006</ele>
        <time>2025-12-29T21:35:27.971Z</time>
      </trkpt>
      <trkpt lat="28.355417" lon="-16.589531">
        <ele>1137.556952</ele>
        <time>2025-12-29T21:35:37.309Z</time>
      </trkpt>
      <trkpt lat="28.355163" lon="-16.589648">
        <ele>1135.320232</ele>
        <time>2025-12-29T21:35:47.873Z</time>
      </trkpt>
      <trkpt lat="28.354893" lon="-16.589623">
        <ele>1133.109467</ele>
        <time>2025-12-29T21:35:59.270Z</time>
      </trkpt>
      <trkpt lat="28.354727" lon="-16.589639">
        <ele>1131.749881</ele>
        <time>2025-12-29T21:36:06.754Z</time>
      </trkpt>
      <trkpt lat="28.354557" lon="-16.589589">
        <ele>1130.316797</ele>
        <time>2025-12-29T21:36:14.659Z</time>
      </trkpt>
      <trkpt lat="28.354467" lon="-16.589498">
        <ele>1129.333639</ele>
        <time>2025-12-29T21:36:19.379Z</time>
      </trkpt>
      <trkpt lat="28.354350" lon="-16.589264">
        <ele>1127.400770</ele>
        <time>2025-12-29T21:36:27.381Z</time>
      </trkpt>
      <trkpt lat="28.354277" lon="-16.589222">
        <ele>1126.733009</ele>
        <time>2025-12-29T21:36:30.005Z</time>
      </trkpt>
      <trkpt lat="28.354024" lon="-16.589224">
        <ele>1124.668233</ele>
        <time>2025-12-29T21:36:38.008Z</time>
      </trkpt>
      <trkpt lat="28.353868" lon="-16.589164">
        <ele>1122.359459</ele>
        <time>2025-12-29T21:36:43.565Z</time>
      </trkpt>
      <trkpt lat="28.353697" lon="-16.589035">
        <ele>1117.527647</ele>
        <time>2025-12-29T21:36:50.645Z</time>
      </trkpt>
      <trkpt lat="28.353430" lon="-16.588538">
        <ele>1105.464576</ele>
        <time>2025-12-29T21:37:09.020Z</time>
      </trkpt>
      <trkpt lat="28.353370" lon="-16.588519">
        <ele>1103.998309</ele>
        <time>2025-12-29T21:37:11.235Z</time>
      </trkpt>
      <trkpt lat="28.353378" lon="-16.588422">
        <ele>1101.979981</ele>
        <time>2025-12-29T21:37:14.866Z</time>
      </trkpt>
      <trkpt lat="28.353349" lon="-16.588340">
        <ele>1100.149167</ele>
        <time>2025-12-29T21:37:18.034Z</time>
      </trkpt>
      <trkpt lat="28.353386" lon="-16.588272">
        <ele>1098.492908</ele>
        <time>2025-12-29T21:37:20.940Z</time>
      </trkpt>
      <trkpt lat="28.353433" lon="-16.588282">
        <ele>1097.367263</ele>
        <time>2025-12-29T21:37:22.810Z</time>
      </trkpt>
      <trkpt lat="28.353420" lon="-16.588222">
        <ele>1096.087142</ele>
        <time>2025-12-29T21:37:24.923Z</time>
      </trkpt>
      <trkpt lat="28.353363" lon="-16.588186">
        <ele>1094.551983</ele>
        <time>2025-12-29T21:37:27.496Z</time>
      </trkpt>
      <trkpt lat="28.353162" lon="-16.588210">
        <ele>1089.794234</ele>
        <time>2025-12-29T21:37:35.035Z</time>
      </trkpt>
      <trkpt lat="28.353162" lon="-16.588168">
        <ele>1088.924130</ele>
        <time>2025-12-29T21:37:36.428Z</time>
      </trkpt>
      <trkpt lat="28.353250" lon="-16.588112">
        <ele>1086.549809</ele>
        <time>2025-12-29T21:37:40.182Z</time>
      </trkpt>
      <trkpt lat="28.353517" lon="-16.588052">
        <ele>1081.084450</ele>
        <time>2025-12-29T21:37:50.453Z</time>
      </trkpt>
      <trkpt lat="28.353545" lon="-16.587970">
        <ele>1080.531623</ele>
        <time>2025-12-29T21:37:53.485Z</time>
      </trkpt>
      <trkpt lat="28.353622" lon="-16.587895">
        <ele>1079.807301</ele>
        <time>2025-12-29T21:37:57.524Z</time>
      </trkpt>
      <trkpt lat="28.353576" lon="-16.587863">
        <ele>1079.422091</ele>
        <time>2025-12-29T21:37:59.820Z</time>
      </trkpt>
      <trkpt lat="28.353592" lon="-16.587835">
        <ele>1079.212259</ele>
        <time>2025-12-29T21:38:01.093Z</time>
      </trkpt>
      <trkpt lat="28.353666" lon="-16.587791">
        <ele>1078.615766</ele>
        <time>2025-12-29T21:38:04.715Z</time>
      </trkpt>
      <trkpt lat="28.353796" lon="-16.587760">
        <ele>1077.667077</ele>
        <time>2025-12-29T21:38:10.634Z</time>
      </trkpt>
      <trkpt lat="28.353871" lon="-16.587796">
        <ele>1077.085595</ele>
        <time>2025-12-29T21:38:14.424Z</time>
      </trkpt>
      <trkpt lat="28.353881" lon="-16.588067">
        <ele>1075.380804</ele>
        <time>2025-12-29T21:38:25.500Z</time>
      </trkpt>
      <trkpt lat="28.354004" lon="-16.588319">
        <ele>1073.569625</ele>
        <time>2025-12-29T21:38:37.399Z</time>
      </trkpt>
      <trkpt lat="28.354036" lon="-16.588386">
        <ele>1073.090494</ele>
        <time>2025-12-29T21:38:40.481Z</time>
      </trkpt>
      <trkpt lat="28.354087" lon="-16.588435">
        <ele>1072.613501</ele>
        <time>2025-12-29T21:38:43.619Z</time>
      </trkpt>
      <trkpt lat="28.354253" lon="-16.588443">
        <ele>1071.426857</ele>
        <time>2025-12-29T21:38:51.229Z</time>
      </trkpt>
      <trkpt lat="28.354675" lon="-16.588269">
        <ele>1067.371524</ele>
        <time>2025-12-29T21:39:09.914Z</time>
      </trkpt>
      <trkpt lat="28.354779" lon="-16.588280">
        <ele>1065.145540</ele>
        <time>2025-12-29T21:39:13.872Z</time>
      </trkpt>
      <trkpt lat="28.354786" lon="-16.588255">
        <ele>1064.653513</ele>
        <time>2025-12-29T21:39:14.764Z</time>
      </trkpt>
      <trkpt lat="28.354772" lon="-16.588171">
        <ele>1063.050115</ele>
        <time>2025-12-29T21:39:17.581Z</time>
      </trkpt>
      <trkpt lat="28.354735" lon="-16.588148">
        <ele>1062.151312</ele>
        <time>2025-12-29T21:39:19.178Z</time>
      </trkpt>
      <trkpt lat="28.354655" lon="-16.588146">
        <ele>1060.445974</ele>
        <time>2025-12-29T21:39:22.164Z</time>
      </trkpt>
      <trkpt lat="28.354419" lon="-16.588242">
        <ele>1055.103895</ele>
        <time>2025-12-29T21:39:31.521Z</time>
      </trkpt>
      <trkpt lat="28.354325" lon="-16.588229">
        <ele>1053.085825</ele>
        <time>2025-12-29T21:39:35.073Z</time>
      </trkpt>
      <trkpt lat="28.354292" lon="-16.588144">
        <ele>1051.343431</ele>
        <time>2025-12-29T21:39:38.150Z</time>
      </trkpt>
      <trkpt lat="28.354373" lon="-16.587949">
        <ele>1047.299318</ele>
        <time>2025-12-29T21:39:45.401Z</time>
      </trkpt>
      <trkpt lat="28.354159" lon="-16.587498">
        <ele>1037.689720</ele>
        <time>2025-12-29T21:40:03.149Z</time>
      </trkpt>
      <trkpt lat="28.353949" lon="-16.587279">
        <ele>1031.615231</ele>
        <time>2025-12-29T21:40:14.488Z</time>
      </trkpt>
      <trkpt lat="28.353242" lon="-16.587288">
        <ele>1013.388955</ele>
        <time>2025-12-29T21:40:42.883Z</time>
      </trkpt>
      <trkpt lat="28.353132" lon="-16.587244">
        <ele>1010.333686</ele>
        <time>2025-12-29T21:40:47.523Z</time>
      </trkpt>
      <trkpt lat="28.353172" lon="-16.587184">
        <ele>1008.598175</ele>
        <time>2025-12-29T21:40:50.115Z</time>
      </trkpt>
      <trkpt lat="28.353445" lon="-16.587030">
        <ele>1000.612915</ele>
        <time>2025-12-29T21:41:02.102Z</time>
      </trkpt>
      <trkpt lat="28.353453" lon="-16.586973">
        <ele>999.282097</ele>
        <time>2025-12-29T21:41:04.069Z</time>
      </trkpt>
      <trkpt lat="28.353166" lon="-16.586933">
        <ele>991.706542</ele>
        <time>2025-12-29T21:41:15.275Z</time>
      </trkpt>
      <trkpt lat="28.353015" lon="-16.586955">
        <ele>987.718057</ele>
        <time>2025-12-29T21:41:21.085Z</time>
      </trkpt>
      <trkpt lat="28.353000" lon="-16.586943">
        <ele>987.237441</ele>
        <time>2025-12-29T21:41:21.775Z</time>
      </trkpt>
      <trkpt lat="28.353025" lon="-16.586879">
        <ele>985.622997</ele>
        <time>2025-12-29T21:41:24.136Z</time>
      </trkpt>
      <trkpt lat="28.353396" lon="-16.586647">
        <ele>976.254810</ele>
        <time>2025-12-29T21:41:40.041Z</time>
      </trkpt>
      <trkpt lat="28.353593" lon="-16.586491">
        <ele>971.217288</ele>
        <time>2025-12-29T21:41:48.960Z</time>
      </trkpt>
      <trkpt lat="28.353596" lon="-16.586467">
        <ele>970.769738</ele>
        <time>2025-12-29T21:41:49.746Z</time>
      </trkpt>
      <trkpt lat="28.353285" lon="-16.586450">
        <ele>964.237591</ele>
        <time>2025-12-29T21:42:01.312Z</time>
      </trkpt>
      <trkpt lat="28.353003" lon="-16.586482">
        <ele>958.291965</ele>
        <time>2025-12-29T21:42:11.880Z</time>
      </trkpt>
      <trkpt lat="28.352581" lon="-16.586606">
        <ele>949.147430</ele>
        <time>2025-12-29T21:42:28.166Z</time>
      </trkpt>
      <trkpt lat="28.352506" lon="-16.586536">
        <ele>947.111244</ele>
        <time>2025-12-29T21:42:31.776Z</time>
      </trkpt>
      <trkpt lat="28.352567" lon="-16.586384">
        <ele>944.078411</ele>
        <time>2025-12-29T21:42:37.300Z</time>
      </trkpt>
      <trkpt lat="28.352784" lon="-16.586235">
        <ele>938.950672</ele>
        <time>2025-12-29T21:42:46.756Z</time>
      </trkpt>
      <trkpt lat="28.352817" lon="-16.586107">
        <ele>936.576733</ele>
        <time>2025-12-29T21:42:51.143Z</time>
      </trkpt>
      <trkpt lat="28.352766" lon="-16.586102">
        <ele>935.541452</ele>
        <time>2025-12-29T21:42:53.067Z</time>
      </trkpt>
      <trkpt lat="28.352518" lon="-16.586185">
        <ele>930.312751</ele>
        <time>2025-12-29T21:43:02.713Z</time>
      </trkpt>
      <trkpt lat="28.352367" lon="-16.586171">
        <ele>927.248704</ele>
        <time>2025-12-29T21:43:08.361Z</time>
      </trkpt>
      <trkpt lat="28.352299" lon="-16.586134">
        <ele>925.723898</ele>
        <time>2025-12-29T21:43:11.178Z</time>
      </trkpt>
      <trkpt lat="28.352329" lon="-16.586073">
        <ele>924.480160</ele>
        <time>2025-12-29T21:43:13.471Z</time>
      </trkpt>
      <trkpt lat="28.352270" lon="-16.586058">
        <ele>923.257413</ele>
        <time>2025-12-29T21:43:15.696Z</time>
      </trkpt>
      <trkpt lat="28.352273" lon="-16.585960">
        <ele>921.512110</ele>
        <time>2025-12-29T21:43:18.922Z</time>
      </trkpt>
      <trkpt lat="28.352181" lon="-16.585730">
        <ele>917.015448</ele>
        <time>2025-12-29T21:43:27.207Z</time>
      </trkpt>
      <trkpt lat="28.352229" lon="-16.585673">
        <ele>915.611296</ele>
        <time>2025-12-29T21:43:29.782Z</time>
      </trkpt>
      <trkpt lat="28.352511" lon="-16.585552">
        <ele>909.514924</ele>
        <time>2025-12-29T21:43:41.003Z</time>
      </trkpt>
      <trkpt lat="28.352745" lon="-16.585295">
        <ele>904.420858</ele>
        <time>2025-12-29T21:43:53.119Z</time>
      </trkpt>
      <trkpt lat="28.352766" lon="-16.585186">
        <ele>902.915374</ele>
        <time>2025-12-29T21:43:56.829Z</time>
      </trkpt>
      <trkpt lat="28.352926" lon="-16.584940">
        <ele>898.788187</ele>
        <time>2025-12-29T21:44:06.891Z</time>
      </trkpt>
      <trkpt lat="28.352860" lon="-16.584754">
        <ele>896.082314</ele>
        <time>2025-12-29T21:44:13.466Z</time>
      </trkpt>
      <trkpt lat="28.352866" lon="-16.584550">
        <ele>893.328363</ele>
        <time>2025-12-29T21:44:20.204Z</time>
      </trkpt>
      <trkpt lat="28.352921" lon="-16.584503">
        <ele>892.273300</ele>
        <time>2025-12-29T21:44:22.812Z</time>
      </trkpt>
      <trkpt lat="28.352978" lon="-16.584522">
        <ele>891.362587</ele>
        <time>2025-12-29T21:44:25.051Z</time>
      </trkpt>
      <trkpt lat="28.353045" lon="-16.584539">
        <ele>890.310087</ele>
        <time>2025-12-29T21:44:27.658Z</time>
      </trkpt>
      <trkpt lat="28.353117" lon="-16.584507">
        <ele>889.124796</ele>
        <time>2025-12-29T21:44:30.569Z</time>
      </trkpt>
      <trkpt lat="28.353295" lon="-16.584377">
        <ele>885.880750</ele>
        <time>2025-12-29T21:44:38.796Z</time>
      </trkpt>
      <trkpt lat="28.353349" lon="-16.584404">
        <ele>884.976252</ele>
        <time>2025-12-29T21:44:41.093Z</time>
      </trkpt>
      <trkpt lat="28.353348" lon="-16.584448">
        <ele>884.382399</ele>
        <time>2025-12-29T21:44:42.707Z</time>
      </trkpt>
      <trkpt lat="28.353281" lon="-16.584511">
        <ele>883.049110</ele>
        <time>2025-12-29T21:44:46.385Z</time>
      </trkpt>
      <trkpt lat="28.353279" lon="-16.584577">
        <ele>882.158099</ele>
        <time>2025-12-29T21:44:48.779Z</time>
      </trkpt>
      <trkpt lat="28.353498" lon="-16.584637">
        <ele>882.627123</ele>
        <time>2025-12-29T21:44:58.782Z</time>
      </trkpt>
      <trkpt lat="28.353555" lon="-16.584707">
        <ele>883.141628</ele>
        <time>2025-12-29T21:45:02.614Z</time>
      </trkpt>
      <trkpt lat="28.353580" lon="-16.584835">
        <ele>883.848977</ele>
        <time>2025-12-29T21:45:08.157Z</time>
      </trkpt>
      <trkpt lat="28.353814" lon="-16.585038">
        <ele>885.653738</ele>
        <time>2025-12-29T21:45:24.187Z</time>
      </trkpt>
      <trkpt lat="28.354021" lon="-16.585091">
        <ele>886.954531</ele>
        <time>2025-12-29T21:45:38.821Z</time>
      </trkpt>
      <trkpt lat="28.354116" lon="-16.585166">
        <ele>887.663672</ele>
        <time>2025-12-29T21:45:48.161Z</time>
      </trkpt>
      <trkpt lat="28.354290" lon="-16.585171">
        <ele>888.730691</ele>
        <time>2025-12-29T21:46:02.730Z</time>
      </trkpt>
      <trkpt lat="28.354400" lon="-16.585316">
        <ele>889.763479</ele>
        <time>2025-12-29T21:46:17.796Z</time>
      </trkpt>
      <trkpt lat="28.354561" lon="-16.585407">
        <ele>890.865817</ele>
        <time>2025-12-29T21:46:34.495Z</time>
      </trkpt>
      <trkpt lat="28.354690" lon="-16.585437">
        <ele>891.673021</ele>
        <time>2025-12-29T21:46:46.558Z</time>
      </trkpt>
      <trkpt lat="28.354772" lon="-16.585483">
        <ele>892.233627</ele>
        <time>2025-12-29T21:46:54.836Z</time>
      </trkpt>
      <trkpt lat="28.354822" lon="-16.585562">
        <ele>892.731157</ele>
        <time>2025-12-29T21:47:02.547Z</time>
      </trkpt>
      <trkpt lat="28.354843" lon="-16.585809">
        <ele>893.907144</ele>
        <time>2025-12-29T21:47:21.159Z</time>
      </trkpt>
      <trkpt lat="28.354903" lon="-16.585923">
        <ele>894.536640</ele>
        <time>2025-12-29T21:47:30.344Z</time>
      </trkpt>
      <trkpt lat="28.355029" lon="-16.586048">
        <ele>895.437364</ele>
        <time>2025-12-29T21:47:42.411Z</time>
      </trkpt>
      <trkpt lat="28.355039" lon="-16.586172">
        <ele>896.027463</ele>
        <time>2025-12-29T21:47:49.778Z</time>
      </trkpt>
      <trkpt lat="28.355092" lon="-16.586295">
        <ele>896.676484</ele>
        <time>2025-12-29T21:47:57.019Z</time>
      </trkpt>
      <trkpt lat="28.355182" lon="-16.586344">
        <ele>897.213901</ele>
        <time>2025-12-29T21:48:02.409Z</time>
      </trkpt>
      <trkpt lat="28.355202" lon="-16.586425">
        <ele>897.612583</ele>
        <time>2025-12-29T21:48:06.494Z</time>
      </trkpt>
      <trkpt lat="28.355160" lon="-16.586590">
        <ele>898.426571</ele>
        <time>2025-12-29T21:48:14.310Z</time>
      </trkpt>
      <trkpt lat="28.355273" lon="-16.586662">
        <ele>899.124221</ele>
        <time>2025-12-29T21:48:20.878Z</time>
      </trkpt>
      <trkpt lat="28.355418" lon="-16.586615">
        <ele>899.936207</ele>
        <time>2025-12-29T21:48:28.577Z</time>
      </trkpt>
      <trkpt lat="28.355541" lon="-16.586461">
        <ele>900.921775</ele>
        <time>2025-12-29T21:48:38.139Z</time>
      </trkpt>
      <trkpt lat="28.355702" lon="-16.586407">
        <ele>901.825754</ele>
        <time>2025-12-29T21:48:46.700Z</time>
      </trkpt>
      <trkpt lat="28.355757" lon="-16.586359">
        <ele>902.199206</ele>
        <time>2025-12-29T21:48:50.110Z</time>
      </trkpt>
      <trkpt lat="28.355796" lon="-16.586226">
        <ele>901.898854</ele>
        <time>2025-12-29T21:48:56.268Z</time>
      </trkpt>
      <trkpt lat="28.355954" lon="-16.586060">
        <ele>901.323927</ele>
        <time>2025-12-29T21:49:06.943Z</time>
      </trkpt>
      <trkpt lat="28.356033" lon="-16.586051">
        <ele>901.111797</ele>
        <time>2025-12-29T21:49:10.816Z</time>
      </trkpt>
      <trkpt lat="28.356064" lon="-16.586058">
        <ele>901.027352</ele>
        <time>2025-12-29T21:49:12.372Z</time>
      </trkpt>
      <trkpt lat="28.356134" lon="-16.586265">
        <ele>900.505954</ele>
        <time>2025-12-29T21:49:21.763Z</time>
      </trkpt>
      <trkpt lat="28.356086" lon="-16.586313">
        <ele>900.335120</ele>
        <time>2025-12-29T21:49:24.832Z</time>
      </trkpt>
      <trkpt lat="28.356045" lon="-16.586407">
        <ele>900.088449</ele>
        <time>2025-12-29T21:49:29.147Z</time>
      </trkpt>
      <trkpt lat="28.356099" lon="-16.586564">
        <ele>899.692115</ele>
        <time>2025-12-29T21:49:36.015Z</time>
      </trkpt>
      <trkpt lat="28.356140" lon="-16.586636">
        <ele>899.490476</ele>
        <time>2025-12-29T21:49:39.525Z</time>
      </trkpt>
      <trkpt lat="28.356287" lon="-16.586676">
        <ele>899.086619</ele>
        <time>2025-12-29T21:49:46.452Z</time>
      </trkpt>
      <trkpt lat="28.356380" lon="-16.586773">
        <ele>898.749343</ele>
        <time>2025-12-29T21:49:52.291Z</time>
      </trkpt>
      <trkpt lat="28.356496" lon="-16.586789">
        <ele>898.437140</ele>
        <time>2025-12-29T21:49:57.596Z</time>
      </trkpt>
      <trkpt lat="28.356562" lon="-16.586695">
        <ele>898.154400</ele>
        <time>2025-12-29T21:50:02.310Z</time>
      </trkpt>
      <trkpt lat="28.356620" lon="-16.586671">
        <ele>897.989482</ele>
        <time>2025-12-29T21:50:05.054Z</time>
      </trkpt>
      <trkpt lat="28.356806" lon="-16.586678">
        <ele>897.492255</ele>
        <time>2025-12-29T21:50:12.893Z</time>
      </trkpt>
      <trkpt lat="28.357100" lon="-16.586544">
        <ele>892.120913</ele>
        <time>2025-12-29T21:50:25.258Z</time>
      </trkpt>
      <trkpt lat="28.357305" lon="-16.586574">
        <ele>888.311690</ele>
        <time>2025-12-29T21:50:33.044Z</time>
      </trkpt>
      <trkpt lat="28.357577" lon="-16.586690">
        <ele>882.957507</ele>
        <time>2025-12-29T21:50:43.914Z</time>
      </trkpt>
      <trkpt lat="28.357616" lon="-16.586657">
        <ele>882.061391</ele>
        <time>2025-12-29T21:50:45.719Z</time>
      </trkpt>
      <trkpt lat="28.357580" lon="-16.586578">
        <ele>880.618589</ele>
        <time>2025-12-29T21:50:48.650Z</time>
      </trkpt>
      <trkpt lat="28.357378" lon="-16.586407">
        <ele>875.976422</ele>
        <time>2025-12-29T21:50:58.081Z</time>
      </trkpt>
      <trkpt lat="28.357260" lon="-16.586261">
        <ele>872.761501</ele>
        <time>2025-12-29T21:51:04.655Z</time>
      </trkpt>
      <trkpt lat="28.357167" lon="-16.586236">
        <ele>871.000264</ele>
        <time>2025-12-29T21:51:08.272Z</time>
      </trkpt>
      <trkpt lat="28.357088" lon="-16.586168">
        <ele>869.173815</ele>
        <time>2025-12-29T21:51:12.072Z</time>
      </trkpt>
      <trkpt lat="28.356912" lon="-16.586096">
        <ele>865.726459</ele>
        <time>2025-12-29T21:51:19.238Z</time>
      </trkpt>
      <trkpt lat="28.356834" lon="-16.586031">
        <ele>864.039968</ele>
        <time>2025-12-29T21:51:22.941Z</time>
      </trkpt>
      <trkpt lat="28.356796" lon="-16.585946">
        <ele>862.956083</ele>
        <time>2025-12-29T21:51:26.148Z</time>
      </trkpt>
      <trkpt lat="28.357004" lon="-16.585832">
        <ele>859.972746</ele>
        <time>2025-12-29T21:51:34.894Z</time>
      </trkpt>
      <trkpt lat="28.357162" lon="-16.585825">
        <ele>857.930017</ele>
        <time>2025-12-29T21:51:40.793Z</time>
      </trkpt>
      <trkpt lat="28.357269" lon="-16.585790">
        <ele>856.491571</ele>
        <time>2025-12-29T21:51:44.939Z</time>
      </trkpt>
      <trkpt lat="28.357397" lon="-16.585805">
        <ele>854.829189</ele>
        <time>2025-12-29T21:51:49.737Z</time>
      </trkpt>
      <trkpt lat="28.357518" lon="-16.585751">
        <ele>853.149781</ele>
        <time>2025-12-29T21:51:54.609Z</time>
      </trkpt>
      <trkpt lat="28.357641" lon="-16.585766">
        <ele>851.551638</ele>
        <time>2025-12-29T21:51:59.276Z</time>
      </trkpt>
      <trkpt lat="28.357759" lon="-16.585689">
        <ele>849.793753</ele>
        <time>2025-12-29T21:52:04.443Z</time>
      </trkpt>
      <trkpt lat="28.357870" lon="-16.585705">
        <ele>848.348271</ele>
        <time>2025-12-29T21:52:08.811Z</time>
      </trkpt>
      <trkpt lat="28.357961" lon="-16.585631">
        <ele>846.902653</ele>
        <time>2025-12-29T21:52:13.477Z</time>
      </trkpt>
      <trkpt lat="28.358031" lon="-16.585607">
        <ele>845.958069</ele>
        <time>2025-12-29T21:52:16.640Z</time>
      </trkpt>
      <trkpt lat="28.358101" lon="-16.585673">
        <ele>844.783004</ele>
        <time>2025-12-29T21:52:20.753Z</time>
      </trkpt>
      <trkpt lat="28.358150" lon="-16.585885">
        <ele>842.291129</ele>
        <time>2025-12-29T21:52:29.993Z</time>
      </trkpt>
      <trkpt lat="28.358296" lon="-16.586182">
        <ele>840.354435</ele>
        <time>2025-12-29T21:52:46.846Z</time>
      </trkpt>
      <trkpt lat="28.358241" lon="-16.586461">
        <ele>839.512986</ele>
        <time>2025-12-29T21:53:02.684Z</time>
      </trkpt>
      <trkpt lat="28.358243" lon="-16.586746">
        <ele>838.674201</ele>
        <time>2025-12-29T21:53:17.588Z</time>
      </trkpt>
      <trkpt lat="28.358209" lon="-16.586863">
        <ele>838.311580</ele>
        <time>2025-12-29T21:53:23.597Z</time>
      </trkpt>
      <trkpt lat="28.358126" lon="-16.586970">
        <ele>837.891801</ele>
        <time>2025-12-29T21:53:30.339Z</time>
      </trkpt>
      <trkpt lat="28.358139" lon="-16.587155">
        <ele>837.345611</ele>
        <time>2025-12-29T21:53:38.223Z</time>
      </trkpt>
      <trkpt lat="28.358100" lon="-16.587304">
        <ele>836.888116</ele>
        <time>2025-12-29T21:53:44.454Z</time>
      </trkpt>
      <trkpt lat="28.358103" lon="-16.587436">
        <ele>836.499508</ele>
        <time>2025-12-29T21:53:49.442Z</time>
      </trkpt>
      <trkpt lat="28.358134" lon="-16.587519">
        <ele>836.234148</ele>
        <time>2025-12-29T21:53:52.706Z</time>
      </trkpt>
      <trkpt lat="28.358198" lon="-16.587524">
        <ele>836.019604</ele>
        <time>2025-12-29T21:53:55.267Z</time>
      </trkpt>
      <trkpt lat="28.358233" lon="-16.587601">
        <ele>835.764547</ele>
        <time>2025-12-29T21:53:58.221Z</time>
      </trkpt>
      <trkpt lat="28.358301" lon="-16.587597">
        <ele>835.536827</ele>
        <time>2025-12-29T21:54:00.811Z</time>
      </trkpt>
      <trkpt lat="28.358349" lon="-16.587526">
        <ele>835.273329</ele>
        <time>2025-12-29T21:54:03.769Z</time>
      </trkpt>
      <trkpt lat="28.358318" lon="-16.587404">
        <ele>834.189877</ele>
        <time>2025-12-29T21:54:07.973Z</time>
      </trkpt>
      <trkpt lat="28.358485" lon="-16.587056">
        <ele>825.759287</ele>
        <time>2025-12-29T21:54:20.989Z</time>
      </trkpt>
      <trkpt lat="28.358496" lon="-16.586912">
        <ele>822.685052</ele>
        <time>2025-12-29T21:54:25.860Z</time>
      </trkpt>
      <trkpt lat="28.358633" lon="-16.586682">
        <ele>816.777927</ele>
        <time>2025-12-29T21:54:35.566Z</time>
      </trkpt>
      <trkpt lat="28.358629" lon="-16.586575">
        <ele>814.500109</ele>
        <time>2025-12-29T21:54:39.392Z</time>
      </trkpt>
      <trkpt lat="28.358709" lon="-16.586306">
        <ele>808.460898</ele>
        <time>2025-12-29T21:54:49.732Z</time>
      </trkpt>
      <trkpt lat="28.358682" lon="-16.586091">
        <ele>803.841772</ele>
        <time>2025-12-29T21:54:57.621Z</time>
      </trkpt>
      <trkpt lat="28.358585" lon="-16.585822">
        <ele>797.658745</ele>
        <time>2025-12-29T21:55:07.759Z</time>
      </trkpt>
      <trkpt lat="28.358610" lon="-16.585392">
        <ele>788.590890</ele>
        <time>2025-12-29T21:55:22.316Z</time>
      </trkpt>
      <trkpt lat="28.358653" lon="-16.585288">
        <ele>786.225264</ele>
        <time>2025-12-29T21:55:26.176Z</time>
      </trkpt>
      <trkpt lat="28.358618" lon="-16.585212">
        <ele>784.459327</ele>
        <time>2025-12-29T21:55:29.026Z</time>
      </trkpt>
      <trkpt lat="28.358647" lon="-16.585115">
        <ele>782.350262</ele>
        <time>2025-12-29T21:55:32.430Z</time>
      </trkpt>
      <trkpt lat="28.358785" lon="-16.585092">
        <ele>779.087237</ele>
        <time>2025-12-29T21:55:37.725Z</time>
      </trkpt>
      <trkpt lat="28.358819" lon="-16.585010">
        <ele>777.221077</ele>
        <time>2025-12-29T21:55:40.766Z</time>
      </trkpt>
      <trkpt lat="28.358864" lon="-16.585023">
        <ele>776.134824</ele>
        <time>2025-12-29T21:55:42.563Z</time>
      </trkpt>
      <trkpt lat="28.358913" lon="-16.585091">
        <ele>774.325428</ele>
        <time>2025-12-29T21:55:45.457Z</time>
      </trkpt>
      <trkpt lat="28.358863" lon="-16.585302">
        <ele>769.826789</ele>
        <time>2025-12-29T21:55:52.776Z</time>
      </trkpt>
      <trkpt lat="28.358879" lon="-16.585395">
        <ele>767.875931</ele>
        <time>2025-12-29T21:55:55.906Z</time>
      </trkpt>
      <trkpt lat="28.358944" lon="-16.585458">
        <ele>765.877279</ele>
        <time>2025-12-29T21:55:59.090Z</time>
      </trkpt>
      <trkpt lat="28.358975" lon="-16.585441">
        <ele>765.072009</ele>
        <time>2025-12-29T21:56:00.406Z</time>
      </trkpt>
      <trkpt lat="28.358978" lon="-16.585360">
        <ele>763.402971</ele>
        <time>2025-12-29T21:56:03.066Z</time>
      </trkpt>
      <trkpt lat="28.359035" lon="-16.585310">
        <ele>761.718390</ele>
        <time>2025-12-29T21:56:05.786Z</time>
      </trkpt>
      <trkpt lat="28.359164" lon="-16.585265">
        <ele>758.561465</ele>
        <time>2025-12-29T21:56:10.815Z</time>
      </trkpt>
      <trkpt lat="28.359184" lon="-16.585377">
        <ele>756.208710</ele>
        <time>2025-12-29T21:56:14.544Z</time>
      </trkpt>
      <trkpt lat="28.359234" lon="-16.585363">
        <ele>755.003984</ele>
        <time>2025-12-29T21:56:16.459Z</time>
      </trkpt>
      <trkpt lat="28.359309" lon="-16.585465">
        <ele>752.267529</ele>
        <time>2025-12-29T21:56:20.802Z</time>
      </trkpt>
      <trkpt lat="28.359369" lon="-16.585446">
        <ele>750.810358</ele>
        <time>2025-12-29T21:56:23.124Z</time>
      </trkpt>
      <trkpt lat="28.359335" lon="-16.585173">
        <ele>745.280753</ele>
        <time>2025-12-29T21:56:32.146Z</time>
      </trkpt>
      <trkpt lat="28.359351" lon="-16.585090">
        <ele>743.590782</ele>
        <time>2025-12-29T21:56:34.955Z</time>
      </trkpt>
      <trkpt lat="28.359429" lon="-16.584997">
        <ele>741.035497</ele>
        <time>2025-12-29T21:56:39.150Z</time>
      </trkpt>
      <trkpt lat="28.359599" lon="-16.584926">
        <ele>736.941872</ele>
        <time>2025-12-29T21:56:45.887Z</time>
      </trkpt>
      <trkpt lat="28.359748" lon="-16.584969">
        <ele>733.467270</ele>
        <time>2025-12-29T21:56:51.611Z</time>
      </trkpt>
      <trkpt lat="28.359818" lon="-16.585033">
        <ele>731.436630</ele>
        <time>2025-12-29T21:56:54.957Z</time>
      </trkpt>
      <trkpt lat="28.359908" lon="-16.585239">
        <ele>726.862243</ele>
        <time>2025-12-29T21:57:02.603Z</time>
      </trkpt>
      <trkpt lat="28.359996" lon="-16.585281">
        <ele>724.704966</ele>
        <time>2025-12-29T21:57:06.193Z</time>
      </trkpt>
      <trkpt lat="28.360072" lon="-16.585377">
        <ele>722.136621</ele>
        <time>2025-12-29T21:57:10.466Z</time>
      </trkpt>
      <trkpt lat="28.360201" lon="-16.585408">
        <ele>719.156481</ele>
        <time>2025-12-29T21:57:15.430Z</time>
      </trkpt>
      <trkpt lat="28.360293" lon="-16.585485">
        <ele>716.573989</ele>
        <time>2025-12-29T21:57:19.686Z</time>
      </trkpt>
      <trkpt lat="28.360365" lon="-16.585499">
        <ele>714.922993</ele>
        <time>2025-12-29T21:57:22.433Z</time>
      </trkpt>
      <trkpt lat="28.360517" lon="-16.585595">
        <ele>710.992548</ele>
        <time>2025-12-29T21:57:28.947Z</time>
      </trkpt>
      <trkpt lat="28.360756" lon="-16.585597">
        <ele>706.120253</ele>
        <time>2025-12-29T21:57:37.844Z</time>
      </trkpt>
      <trkpt lat="28.360818" lon="-16.585636">
        <ele>704.782142</ele>
        <time>2025-12-29T21:57:40.484Z</time>
      </trkpt>
      <trkpt lat="28.360899" lon="-16.585759">
        <ele>702.229408</ele>
        <time>2025-12-29T21:57:45.520Z</time>
      </trkpt>
      <trkpt lat="28.360991" lon="-16.585763">
        <ele>700.490934</ele>
        <time>2025-12-29T21:57:49.025Z</time>
      </trkpt>
      <trkpt lat="28.361068" lon="-16.585814">
        <ele>698.808038</ele>
        <time>2025-12-29T21:57:52.443Z</time>
      </trkpt>
      <trkpt lat="28.361200" lon="-16.585818">
        <ele>696.314643</ele>
        <time>2025-12-29T21:57:57.643Z</time>
      </trkpt>
      <trkpt lat="28.361309" lon="-16.585897">
        <ele>693.873468</ele>
        <time>2025-12-29T21:58:02.715Z</time>
      </trkpt>
      <trkpt lat="28.361369" lon="-16.585899">
        <ele>692.740022</ele>
        <time>2025-12-29T21:58:05.063Z</time>
      </trkpt>
      <trkpt lat="28.361428" lon="-16.585847">
        <ele>691.330154</ele>
        <time>2025-12-29T21:58:07.866Z</time>
      </trkpt>
      <trkpt lat="28.361557" lon="-16.585868">
        <ele>688.869427</ele>
        <time>2025-12-29T21:58:12.705Z</time>
      </trkpt>
      <trkpt lat="28.361630" lon="-16.585995">
        <ele>686.348869</ele>
        <time>2025-12-29T21:58:17.689Z</time>
      </trkpt>
      <trkpt lat="28.361687" lon="-16.585993">
        <ele>685.272046</ele>
        <time>2025-12-29T21:58:19.837Z</time>
      </trkpt>
      <trkpt lat="28.361706" lon="-16.585939">
        <ele>684.305709</ele>
        <time>2025-12-29T21:58:21.755Z</time>
      </trkpt>
      <trkpt lat="28.361777" lon="-16.585934">
        <ele>682.962470</ele>
        <time>2025-12-29T21:58:24.441Z</time>
      </trkpt>
      <trkpt lat="28.361816" lon="-16.585998">
        <ele>681.668948</ele>
        <time>2025-12-29T21:58:27.013Z</time>
      </trkpt>
      <trkpt lat="28.361874" lon="-16.586042">
        <ele>680.352146</ele>
        <time>2025-12-29T21:58:29.676Z</time>
      </trkpt>
      <trkpt lat="28.361947" lon="-16.586017">
        <ele>678.912482</ele>
        <time>2025-12-29T21:58:32.532Z</time>
      </trkpt>
      <trkpt lat="28.362115" lon="-16.586039">
        <ele>675.719205</ele>
        <time>2025-12-29T21:58:39.036Z</time>
      </trkpt>
      <trkpt lat="28.362251" lon="-16.586091">
        <ele>675.077571</ele>
        <time>2025-12-29T21:58:43.896Z</time>
      </trkpt>
      <trkpt lat="28.362391" lon="-16.586225">
        <ele>675.512403</ele>
        <time>2025-12-29T21:58:50.360Z</time>
      </trkpt>
      <trkpt lat="28.362713" lon="-16.586645">
        <ele>676.676873</ele>
        <time>2025-12-29T21:59:09.404Z</time>
      </trkpt>
      <trkpt lat="28.362835" lon="-16.586717">
        <ele>677.003448</ele>
        <time>2025-12-29T21:59:15.694Z</time>
      </trkpt>
      <trkpt lat="28.362954" lon="-16.586826">
        <ele>677.366540</ele>
        <time>2025-12-29T21:59:24.043Z</time>
      </trkpt>
      <trkpt lat="28.363194" lon="-16.586830">
        <ele>677.936746</ele>
        <time>2025-12-29T21:59:41.067Z</time>
      </trkpt>
      <trkpt lat="28.363449" lon="-16.586876">
        <ele>678.550109</ele>
        <time>2025-12-29T21:59:59.559Z</time>
      </trkpt>
      <trkpt lat="28.363612" lon="-16.586998">
        <ele>679.013770</ele>
        <time>2025-12-29T22:00:12.980Z</time>
      </trkpt>
      <trkpt lat="28.363699" lon="-16.587480">
        <ele>679.540492</ele>
        <time>2025-12-29T22:00:40.439Z</time>
      </trkpt>
      <trkpt lat="28.363653" lon="-16.587687">
        <ele>679.744133</ele>
        <time>2025-12-29T22:00:52.176Z</time>
      </trkpt>
      <trkpt lat="28.363648" lon="-16.587838">
        <ele>679.888263</ele>
        <time>2025-12-29T22:01:00.494Z</time>
      </trkpt>
      <trkpt lat="28.363677" lon="-16.587960">
        <ele>680.008801</ele>
        <time>2025-12-29T22:01:06.264Z</time>
      </trkpt>
      <trkpt lat="28.363787" lon="-16.588154">
        <ele>680.228932</ele>
        <time>2025-12-29T22:01:15.773Z</time>
      </trkpt>
      <trkpt lat="28.363822" lon="-16.588302">
        <ele>680.375107</ele>
        <time>2025-12-29T22:01:21.551Z</time>
      </trkpt>
      <trkpt lat="28.363936" lon="-16.588581">
        <ele>680.668515</ele>
        <time>2025-12-29T22:01:31.879Z</time>
      </trkpt>
      <trkpt lat="28.363852" lon="-16.588817">
        <ele>680.911336</ele>
        <time>2025-12-29T22:01:39.750Z</time>
      </trkpt>
      <trkpt lat="28.363854" lon="-16.588951">
        <ele>681.039167</ele>
        <time>2025-12-29T22:01:43.671Z</time>
      </trkpt>
      <trkpt lat="28.363928" lon="-16.589014">
        <ele>679.509391</ele>
        <time>2025-12-29T22:01:47.200Z</time>
      </trkpt>
      <trkpt lat="28.364000" lon="-16.589020">
        <ele>677.775598</ele>
        <time>2025-12-29T22:01:49.917Z</time>
      </trkpt>
      <trkpt lat="28.364121" lon="-16.588950">
        <ele>674.514807</ele>
        <time>2025-12-29T22:01:55.043Z</time>
      </trkpt>
      <trkpt lat="28.364205" lon="-16.588860">
        <ele>671.742249</ele>
        <time>2025-12-29T22:01:59.365Z</time>
      </trkpt>
      <trkpt lat="28.364421" lon="-16.588746">
        <ele>666.022672</ele>
        <time>2025-12-29T22:02:08.180Z</time>
      </trkpt>
      <trkpt lat="28.364476" lon="-16.588672">
        <ele>663.975662</ele>
        <time>2025-12-29T22:02:11.481Z</time>
      </trkpt>
      <trkpt lat="28.364472" lon="-16.588520">
        <ele>660.762055</ele>
        <time>2025-12-29T22:02:16.725Z</time>
      </trkpt>
      <trkpt lat="28.364507" lon="-16.588254">
        <ele>655.078261</ele>
        <time>2025-12-29T22:02:26.455Z</time>
      </trkpt>
      <trkpt lat="28.364751" lon="-16.587793">
        <ele>643.709528</ele>
        <time>2025-12-29T22:02:43.199Z</time>
      </trkpt>
      <trkpt lat="28.364795" lon="-16.587779">
        <ele>642.612190</ele>
        <time>2025-12-29T22:02:44.776Z</time>
      </trkpt>
      <trkpt lat="28.364928" lon="-16.587827">
        <ele>639.260866</ele>
        <time>2025-12-29T22:02:49.648Z</time>
      </trkpt>
      <trkpt lat="28.365017" lon="-16.587782">
        <ele>636.883405</ele>
        <time>2025-12-29T22:02:53.084Z</time>
      </trkpt>
      <trkpt lat="28.365191" lon="-16.587554">
        <ele>630.250534</ele>
        <time>2025-12-29T22:03:02.385Z</time>
      </trkpt>
      <trkpt lat="28.365250" lon="-16.587522">
        <ele>628.617724</ele>
        <time>2025-12-29T22:03:04.671Z</time>
      </trkpt>
      <trkpt lat="28.365417" lon="-16.587537">
        <ele>624.433708</ele>
        <time>2025-12-29T22:03:10.465Z</time>
      </trkpt>
      <trkpt lat="28.365464" lon="-16.587519">
        <ele>623.194966</ele>
        <time>2025-12-29T22:03:12.156Z</time>
      </trkpt>
      <trkpt lat="28.365495" lon="-16.587477">
        <ele>621.990186</ele>
        <time>2025-12-29T22:03:13.828Z</time>
      </trkpt>
      <trkpt lat="28.365579" lon="-16.587483">
        <ele>619.888053</ele>
        <time>2025-12-29T22:03:16.696Z</time>
      </trkpt>
      <trkpt lat="28.365972" lon="-16.587392">
        <ele>609.870773</ele>
        <time>2025-12-29T22:03:29.991Z</time>
      </trkpt>
      <trkpt lat="28.366090" lon="-16.587387">
        <ele>606.921545</ele>
        <time>2025-12-29T22:03:33.793Z</time>
      </trkpt>
      <trkpt lat="28.366173" lon="-16.587345">
        <ele>604.652315</ele>
        <time>2025-12-29T22:03:36.672Z</time>
      </trkpt>
      <trkpt lat="28.366317" lon="-16.587323">
        <ele>601.023402</ele>
        <time>2025-12-29T22:03:41.308Z</time>
      </trkpt>
      <trkpt lat="28.366417" lon="-16.587244">
        <ele>597.981621</ele>
        <time>2025-12-29T22:03:45.163Z</time>
      </trkpt>
      <trkpt lat="28.366480" lon="-16.587236">
        <ele>596.398335</ele>
        <time>2025-12-29T22:03:47.184Z</time>
      </trkpt>
      <trkpt lat="28.366536" lon="-16.587268">
        <ele>594.832818</ele>
        <time>2025-12-29T22:03:49.179Z</time>
      </trkpt>
      <trkpt lat="28.366604" lon="-16.587365">
        <ele>592.451217</ele>
        <time>2025-12-29T22:03:52.648Z</time>
      </trkpt>
      <trkpt lat="28.367077" lon="-16.587602">
        <ele>584.811955</ele>
        <time>2025-12-29T22:04:09.178Z</time>
      </trkpt>
      <trkpt lat="28.367230" lon="-16.587648">
        <ele>582.473125</ele>
        <time>2025-12-29T22:04:14.271Z</time>
      </trkpt>
      <trkpt lat="28.367260" lon="-16.587637">
        <ele>582.007279</ele>
        <time>2025-12-29T22:04:15.282Z</time>
      </trkpt>
      <trkpt lat="28.367103" lon="-16.587526">
        <ele>579.274787</ele>
        <time>2025-12-29T22:04:22.279Z</time>
      </trkpt>
      <trkpt lat="28.366826" lon="-16.587151">
        <ele>572.908027</ele>
        <time>2025-12-29T22:04:38.595Z</time>
      </trkpt>
      <trkpt lat="28.366786" lon="-16.586989">
        <ele>570.720081</ele>
        <time>2025-12-29T22:04:44.209Z</time>
      </trkpt>
      <trkpt lat="28.366735" lon="-16.586886">
        <ele>569.183218</ele>
        <time>2025-12-29T22:04:48.165Z</time>
      </trkpt>
      <trkpt lat="28.366839" lon="-16.586608">
        <ele>564.965184</ele>
        <time>2025-12-29T22:04:58.232Z</time>
      </trkpt>
      <trkpt lat="28.366896" lon="-16.586656">
        <ele>563.644005</ele>
        <time>2025-12-29T22:05:00.914Z</time>
      </trkpt>
      <trkpt lat="28.366915" lon="-16.586548">
        <ele>561.839194</ele>
        <time>2025-12-29T22:05:04.565Z</time>
      </trkpt>
      <trkpt lat="28.366996" lon="-16.586522">
        <ele>560.271709</ele>
        <time>2025-12-29T22:05:07.733Z</time>
      </trkpt>
      <trkpt lat="28.367006" lon="-16.586817">
        <ele>555.433992</ele>
        <time>2025-12-29T22:05:17.467Z</time>
      </trkpt>
      <trkpt lat="28.367062" lon="-16.586883">
        <ele>553.931546</ele>
        <time>2025-12-29T22:05:20.490Z</time>
      </trkpt>
      <trkpt lat="28.367174" lon="-16.586897">
        <ele>551.833180</ele>
        <time>2025-12-29T22:05:24.697Z</time>
      </trkpt>
      <trkpt lat="28.367402" lon="-16.587034">
        <ele>547.030150</ele>
        <time>2025-12-29T22:05:34.321Z</time>
      </trkpt>
      <trkpt lat="28.367441" lon="-16.586996">
        <ele>546.073454</ele>
        <time>2025-12-29T22:05:36.236Z</time>
      </trkpt>
      <trkpt lat="28.367389" lon="-16.586842">
        <ele>543.370454</ele>
        <time>2025-12-29T22:05:41.616Z</time>
      </trkpt>
      <trkpt lat="28.367383" lon="-16.586735">
        <ele>541.613507</ele>
        <time>2025-12-29T22:05:45.132Z</time>
      </trkpt>
      <trkpt lat="28.367422" lon="-16.586578">
        <ele>538.940221</ele>
        <time>2025-12-29T22:05:50.473Z</time>
      </trkpt>
      <trkpt lat="28.367480" lon="-16.586569">
        <ele>537.850059</ele>
        <time>2025-12-29T22:05:52.625Z</time>
      </trkpt>
      <trkpt lat="28.367565" lon="-16.586614">
        <ele>536.103765</ele>
        <time>2025-12-29T22:05:56.114Z</time>
      </trkpt>
      <trkpt lat="28.367633" lon="-16.586553">
        <ele>534.490419</ele>
        <time>2025-12-29T22:05:59.346Z</time>
      </trkpt>
      <trkpt lat="28.367683" lon="-16.586446">
        <ele>532.548079</ele>
        <time>2025-12-29T22:06:03.310Z</time>
      </trkpt>
      <trkpt lat="28.367678" lon="-16.586365">
        <ele>531.372897</ele>
        <time>2025-12-29T22:06:05.969Z</time>
      </trkpt>
      <trkpt lat="28.367725" lon="-16.586295">
        <ele>530.098541</ele>
        <time>2025-12-29T22:06:08.856Z</time>
      </trkpt>
      <trkpt lat="28.367812" lon="-16.586284">
        <ele>528.658739</ele>
        <time>2025-12-29T22:06:12.118Z</time>
      </trkpt>
      <trkpt lat="28.367903" lon="-16.586323">
        <ele>527.059083</ele>
        <time>2025-12-29T22:06:15.747Z</time>
      </trkpt>
      <trkpt lat="28.367999" lon="-16.586489">
        <ele>524.184157</ele>
        <time>2025-12-29T22:06:22.312Z</time>
      </trkpt>
      <trkpt lat="28.368055" lon="-16.586486">
        <ele>523.262047</ele>
        <time>2025-12-29T22:06:24.386Z</time>
      </trkpt>
      <trkpt lat="28.368134" lon="-16.586355">
        <ele>520.963573</ele>
        <time>2025-12-29T22:06:29.656Z</time>
      </trkpt>
      <trkpt lat="28.368226" lon="-16.586363">
        <ele>519.445936</ele>
        <time>2025-12-29T22:06:33.122Z</time>
      </trkpt>
      <trkpt lat="28.368313" lon="-16.586413">
        <ele>517.842397</ele>
        <time>2025-12-29T22:06:36.813Z</time>
      </trkpt>
      <trkpt lat="28.368356" lon="-16.586583">
        <ele>515.282390</ele>
        <time>2025-12-29T22:06:42.666Z</time>
      </trkpt>
      <trkpt lat="28.368421" lon="-16.586653">
        <ele>513.809512</ele>
        <time>2025-12-29T22:06:46.031Z</time>
      </trkpt>
      <trkpt lat="28.368525" lon="-16.586835">
        <ele>510.668767</ele>
        <time>2025-12-29T22:06:53.258Z</time>
      </trkpt>
      <trkpt lat="28.368518" lon="-16.587085">
        <ele>507.048753</ele>
        <time>2025-12-29T22:07:01.576Z</time>
      </trkpt>
      <trkpt lat="28.368537" lon="-16.587147">
        <ele>506.098580</ele>
        <time>2025-12-29T22:07:03.762Z</time>
      </trkpt>
      <trkpt lat="28.368621" lon="-16.587302">
        <ele>503.463970</ele>
        <time>2025-12-29T22:07:09.807Z</time>
      </trkpt>
      <trkpt lat="28.368621" lon="-16.587302">
        <ele>503.463970</ele>
        <time>2025-12-29T22:07:09.810Z</time>
      </trkpt>
      <trkpt lat="28.368742" lon="-16.587397">
        <ele>501.127901</ele>
        <time>2025-12-29T22:07:15.363Z</time>
      </trkpt>
      <trkpt lat="28.368849" lon="-16.587526">
        <ele>498.656932</ele>
        <time>2025-12-29T22:07:21.266Z</time>
      </trkpt>
      <trkpt lat="28.368992" lon="-16.587600">
        <ele>496.167972</ele>
        <time>2025-12-29T22:07:27.198Z</time>
      </trkpt>
      <trkpt lat="28.369736" lon="-16.587793">
        <ele>484.079535</ele>
        <time>2025-12-29T22:07:55.792Z</time>
      </trkpt>
      <trkpt lat="28.369782" lon="-16.587875">
        <ele>482.724097</ele>
        <time>2025-12-29T22:07:58.973Z</time>
      </trkpt>
      <trkpt lat="28.369832" lon="-16.587913">
        <ele>481.771297</ele>
        <time>2025-12-29T22:08:01.199Z</time>
      </trkpt>
      <trkpt lat="28.369940" lon="-16.587845">
        <ele>479.815525</ele>
        <time>2025-12-29T22:08:05.118Z</time>
      </trkpt>
      <trkpt lat="28.370389" lon="-16.587675">
        <ele>473.227717</ele>
        <time>2025-12-29T22:08:20.291Z</time>
      </trkpt>
      <trkpt lat="28.370510" lon="-16.587582">
        <ele>471.762308</ele>
        <time>2025-12-29T22:08:24.977Z</time>
      </trkpt>
      <trkpt lat="28.370663" lon="-16.587542">
        <ele>470.187313</ele>
        <time>2025-12-29T22:08:30.079Z</time>
      </trkpt>
      <trkpt lat="28.370734" lon="-16.587437">
        <ele>469.018387</ele>
        <time>2025-12-29T22:08:33.914Z</time>
      </trkpt>
      <trkpt lat="28.370890" lon="-16.587299">
        <ele>467.035181</ele>
        <time>2025-12-29T22:08:40.552Z</time>
      </trkpt>
      <trkpt lat="28.370997" lon="-16.587269">
        <ele>465.929567</ele>
        <time>2025-12-29T22:08:44.349Z</time>
      </trkpt>
      <trkpt lat="28.371114" lon="-16.587196">
        <ele>464.590568</ele>
        <time>2025-12-29T22:08:49.026Z</time>
      </trkpt>
      <trkpt lat="28.371158" lon="-16.587124">
        <ele>463.816766</ele>
        <time>2025-12-29T22:08:51.734Z</time>
      </trkpt>
      <trkpt lat="28.371174" lon="-16.587022">
        <ele>462.902207</ele>
        <time>2025-12-29T22:08:54.953Z</time>
      </trkpt>
      <trkpt lat="28.371237" lon="-16.586949">
        <ele>461.999614</ele>
        <time>2025-12-29T22:08:58.172Z</time>
      </trkpt>
      <trkpt lat="28.371507" lon="-16.586754">
        <ele>458.790309</ele>
        <time>2025-12-29T22:09:09.407Z</time>
      </trkpt>
      <trkpt lat="28.371605" lon="-16.586727">
        <ele>457.778691</ele>
        <time>2025-12-29T22:09:12.880Z</time>
      </trkpt>
      <trkpt lat="28.371896" lon="-16.586730">
        <ele>454.254056</ele>
        <time>2025-12-29T22:09:22.666Z</time>
      </trkpt>
      <trkpt lat="28.372204" lon="-16.586606">
        <ele>449.928707</ele>
        <time>2025-12-29T22:09:33.221Z</time>
      </trkpt>
      <trkpt lat="28.372421" lon="-16.586564">
        <ele>447.014848</ele>
        <time>2025-12-29T22:09:40.330Z</time>
      </trkpt>
      <trkpt lat="28.372633" lon="-16.586551">
        <ele>444.204450</ele>
        <time>2025-12-29T22:09:47.178Z</time>
      </trkpt>
      <trkpt lat="28.372774" lon="-16.586583">
        <ele>442.301135</ele>
        <time>2025-12-29T22:09:51.789Z</time>
      </trkpt>
      <trkpt lat="28.373311" lon="-16.586534">
        <ele>435.169810</ele>
        <time>2025-12-29T22:10:08.992Z</time>
      </trkpt>
      <trkpt lat="28.373315" lon="-16.586506">
        <ele>434.839420</ele>
        <time>2025-12-29T22:10:09.812Z</time>
      </trkpt>
      <trkpt lat="28.373378" lon="-16.586474">
        <ele>433.925971</ele>
        <time>2025-12-29T22:10:12.015Z</time>
      </trkpt>
      <trkpt lat="28.373510" lon="-16.586480">
        <ele>432.076421</ele>
        <time>2025-12-29T22:10:16.223Z</time>
      </trkpt>
      <trkpt lat="28.374189" lon="-16.586389">
        <ele>421.836107</ele>
        <time>2025-12-29T22:10:38.031Z</time>
      </trkpt>
      <trkpt lat="28.374365" lon="-16.586399">
        <ele>419.196742</ele>
        <time>2025-12-29T22:10:43.692Z</time>
      </trkpt>
      <trkpt lat="28.374681" lon="-16.586505">
        <ele>414.261953</ele>
        <time>2025-12-29T22:10:54.228Z</time>
      </trkpt>
      <trkpt lat="28.374952" lon="-16.586522">
        <ele>410.196821</ele>
        <time>2025-12-29T22:11:02.915Z</time>
      </trkpt>
      <trkpt lat="28.375535" lon="-16.586668">
        <ele>403.335284</ele>
        <time>2025-12-29T22:11:22.219Z</time>
      </trkpt>
      <trkpt lat="28.375845" lon="-16.586702">
        <ele>400.713504</ele>
        <time>2025-12-29T22:11:32.616Z</time>
      </trkpt>
      <trkpt lat="28.375933" lon="-16.586672">
        <ele>399.940091</ele>
        <time>2025-12-29T22:11:35.678Z</time>
      </trkpt>
      <trkpt lat="28.376052" lon="-16.586562">
        <ele>398.648829</ele>
        <time>2025-12-29T22:11:40.875Z</time>
      </trkpt>
      <trkpt lat="28.376306" lon="-16.586166">
        <ele>395.019090</ele>
        <time>2025-12-29T22:11:55.715Z</time>
      </trkpt>
      <trkpt lat="28.376437" lon="-16.586001">
        <ele>393.372970</ele>
        <time>2025-12-29T22:12:02.552Z</time>
      </trkpt>
      <trkpt lat="28.376674" lon="-16.585800">
        <ele>390.883610</ele>
        <time>2025-12-29T22:12:13.316Z</time>
      </trkpt>
      <trkpt lat="28.377246" lon="-16.585555">
        <ele>388.509961</ele>
        <time>2025-12-29T22:12:36.288Z</time>
      </trkpt>
      <trkpt lat="28.377465" lon="-16.585419">
        <ele>387.545405</ele>
        <time>2025-12-29T22:12:45.552Z</time>
      </trkpt>
      <trkpt lat="28.377195" lon="-16.585289">
        <ele>386.412061</ele>
        <time>2025-12-29T22:12:56.859Z</time>
      </trkpt>
      <trkpt lat="28.377163" lon="-16.585222">
        <ele>386.152814</ele>
        <time>2025-12-29T22:12:59.511Z</time>
      </trkpt>
      <trkpt lat="28.377150" lon="-16.585189">
        <ele>386.029858</ele>
        <time>2025-12-29T22:13:00.753Z</time>
      </trkpt>
      <trkpt lat="28.377124" lon="-16.585127">
        <ele>385.796295</ele>
        <time>2025-12-29T22:13:03.122Z</time>
      </trkpt>
      <trkpt lat="28.377127" lon="-16.585062">
        <ele>385.574950</ele>
        <time>2025-12-29T22:13:05.352Z</time>
      </trkpt>
      <trkpt lat="28.377267" lon="-16.584695">
        <ele>384.214663</ele>
        <time>2025-12-29T22:13:18.883Z</time>
      </trkpt>
      <trkpt lat="28.377403" lon="-16.584413">
        <ele>382.283798</ele>
        <time>2025-12-29T22:13:29.503Z</time>
      </trkpt>
      <trkpt lat="28.377403" lon="-16.584413">
        <ele>382.283798</ele>
        <time>2025-12-29T22:13:29.512Z</time>
      </trkpt>
      <trkpt lat="28.377460" lon="-16.584339">
        <ele>381.594973</ele>
        <time>2025-12-29T22:13:32.688Z</time>
      </trkpt>
      <trkpt lat="28.377594" lon="-16.584237">
        <ele>380.311184</ele>
        <time>2025-12-29T22:13:38.502Z</time>
      </trkpt>
      <trkpt lat="28.377613" lon="-16.584133">
        <ele>379.567266</ele>
        <time>2025-12-29T22:13:41.811Z</time>
      </trkpt>
      <trkpt lat="28.378488" lon="-16.584145">
        <ele>372.601571</ele>
        <time>2025-12-29T22:14:11.142Z</time>
      </trkpt>
      <trkpt lat="28.378615" lon="-16.584142">
        <ele>371.590406</ele>
        <time>2025-12-29T22:14:15.241Z</time>
      </trkpt>
      <trkpt lat="28.379598" lon="-16.584112">
        <ele>369.593719</ele>
        <time>2025-12-29T22:14:47.474Z</time>
      </trkpt>
      <trkpt lat="28.379947" lon="-16.584080">
        <ele>369.593719</ele>
        <time>2025-12-29T22:14:59.539Z</time>
      </trkpt>
      <trkpt lat="28.379893" lon="-16.584327">
        <ele>369.593719</ele>
        <time>2025-12-29T22:15:07.387Z</time>
      </trkpt>
      <trkpt lat="28.379904" lon="-16.584501">
        <ele>369.593719</ele>
        <time>2025-12-29T22:15:12.791Z</time>
      </trkpt>
      <trkpt lat="28.379950" lon="-16.584705">
        <ele>369.593719</ele>
        <time>2025-12-29T22:15:19.465Z</time>
      </trkpt>
      <trkpt lat="28.380051" lon="-16.584820">
        <ele>369.593719</ele>
        <time>2025-12-29T22:15:24.687Z</time>
      </trkpt>
      <trkpt lat="28.380157" lon="-16.584883">
        <ele>369.593719</ele>
        <time>2025-12-29T22:15:29.110Z</time>
      </trkpt>
      <trkpt lat="28.380703" lon="-16.584918">
        <ele>369.593719</ele>
        <time>2025-12-29T22:15:50.129Z</time>
      </trkpt>
    </trkseg>
  </trk>
</gpx>